
[
{"id":"101","wilaya_id":"1","code":"101","name_ar":"أدرار","name_en":"Adrar","name_ber":"ⴰⴷⵔⴰⵔ","latitude":"26.4888155","longitude":"-1.3582442"},
{"id":"103","wilaya_id":"49","code":"103","name_ar":"شروين","name_en":"Charouine","name_ber":"ⵛⴰⵔⵡⵉⵏ","latitude":"29.0186064","longitude":"-0.2585993"},
{"id":"104","wilaya_id":"1","code":"104","name_ar":"رقان","name_en":"Reggane","name_ber":"ⵔⴻⴳⴳⴰⵏ","latitude":"26.7207267","longitude":"0.1751507"},
{"id":"108","wilaya_id":"1","code":"108","name_ar":"تسابيت","name_en":"Tsabit","name_ber":"ⵜⵙⴰⴱⵉⵜ","latitude":"28.3509683","longitude":"-0.2161001"},
{"id":"109","wilaya_id":"49","code":"109","name_ar":"تيميمون","name_en":"Timimoune","name_ber":"ⵜⵉⵎⵉⵎⵓⵏ","latitude":"30.0244725","longitude":"0.8485979"},
{"id":"111","wilaya_id":"1","code":"111","name_ar":"زاوية كنتة","name_en":"Zaouiet Kounta","name_ber":"ⵣⴰⵡⵉⵢⵢⴰ ⴽⵓⵏⵜⴰ","latitude":"27.2300419","longitude":"-0.1933113"},
{"id":"112","wilaya_id":"1","code":"112","name_ar":"أولف","name_en":"Aoulef","name_ber":"ⴰⵡⵍⴻⴼ","latitude":"26.9722077","longitude":"1.0786817"},
{"id":"115","wilaya_id":"1","code":"115","name_ar":"فنوغيل","name_en":"Fenoughil","name_ber":"ⴼⵏⵓⵖⵉⵍ","latitude":"27.6060965","longitude":"-0.3021104"},
{"id":"116","wilaya_id":"49","code":"116","name_ar":"تنركوك","name_en":"Tinerkouk","name_ber":"ⵜⵉⵏⴻⵔⴽⵓⴽ","latitude":"30.4619390","longitude":"1.3611996"},
{"id":"123","wilaya_id":"49","code":"123","name_ar":"أوقروت","name_en":"Aougrout","name_ber":"ⴰⵡⴳⵔⵓⵜ","latitude":"28.7074429","longitude":"0.3406103"},
{"id":"125","wilaya_id":"50","code":"125","name_ar":"برج باجي مختار","name_en":"Bordj Badji Mokhtar","name_ber":"ⴱⵓⵔⴵ ⴱⴰⴵⵉ ⵎⵓⵅⵜⴰⵔ","latitude":"22.6261461","longitude":"0.1275817"},
{"id":"201","wilaya_id":"2","code":"201","name_ar":"الشلف","name_en":"Chlef","name_ber":"ⵛⵛⵍⴻⴼ","latitude":"36.2034200","longitude":"1.2680696"},
{"id":"202","wilaya_id":"2","code":"202","name_ar":"تنس","name_en":"Tenes","name_ber":"ⵜⴻⵏⴻⵙ","latitude":"36.5080818","longitude":"1.3078072"},
{"id":"204","wilaya_id":"2","code":"204","name_ar":"الكريمية","name_en":"El Karimia","name_ber":"ⵍⴽⴰⵔⵉⵎⵉⵢⴰ","latitude":"36.1121742","longitude":"1.5534446"},
{"id":"206","wilaya_id":"2","code":"206","name_ar":"تاوقريت","name_en":"Taougrite","name_ber":"ⵜⴰⵡⴳⵔⵉⵜ","latitude":"36.2472325","longitude":"0.9222293"},
{"id":"207","wilaya_id":"2","code":"207","name_ar":"بني حواء","name_en":"Beni Haoua","name_ber":"ⴰⵢⵜ ⵃⴻⵡⵡⴰ","latitude":"36.5304451","longitude":"1.5692626"},
{"id":"210","wilaya_id":"2","code":"210","name_ar":"أولاد فارس","name_en":"Ouled Fares","name_ber":"ⵡⵍⴰⴷ ⴼⴰⵔⴻⵙ","latitude":"36.2303457","longitude":"1.2084133"},
{"id":"212","wilaya_id":"2","code":"212","name_ar":"بوقادير","name_en":"Boukadir","name_ber":"ⴱⵓⵇⴰⴷⵉⵔ","latitude":"36.0650746","longitude":"1.1278681"},
{"id":"220","wilaya_id":"2","code":"220","name_ar":"الزبوجة","name_en":"Zeboudja","name_ber":"ⵥⴻⴱⴱⵓⵊⴰ","latitude":"36.3540252","longitude":"1.4302999"},
{"id":"222","wilaya_id":"2","code":"222","name_ar":"أبو الحسن","name_en":"Abou El Hassen","name_ber":"ⴶⴱⵓ ⵍⵃⴰⵙⴻⵏ","latitude":"36.4145938","longitude":"1.1938241"},
{"id":"223","wilaya_id":"2","code":"223","name_ar":"المرسى","name_en":"El Marsa","name_ber":"ⵍⵎⴻⵔⵙⴰ","latitude":"36.8091281","longitude":"3.2546039"},
{"id":"229","wilaya_id":"2","code":"229","name_ar":"وادي الفضة","name_en":"Wadi Al Fiddha","name_ber":"Oued Fodda وادي الفضة","latitude":"36.1358688","longitude":"1.5415460"},
{"id":"230","wilaya_id":"2","code":"230","name_ar":"أولاد بن عبد القادر","name_en":"Ouled Ben Abdelkader","name_ber":"ⵡⵍⴰⴷ ⴱⴻⵏ ⵄⴻⴱⴷⴻⵍⵇⴰⴷⴻⵔ","latitude":"36.0238897","longitude":"1.2761855"},
{"id":"232","wilaya_id":"2","code":"232","name_ar":"عين مران","name_en":"Ain Merane","name_ber":"ⵄⵉⵏ ⵎⴻⵔⵔⴰⵏ","latitude":"36.1756260","longitude":"0.9723668"},
{"id":"301","wilaya_id":"3","code":"301","name_ar":"الأغواط","name_en":"Laghouat","name_ber":"ⵍⴻⵖⵡⴰⵟ","latitude":"33.7504405","longitude":"2.6431094"},
{"id":"302","wilaya_id":"3","code":"302","name_ar":"قصر الحيران","name_en":"Ksar El Hiranet","name_ber":"ⵇⵚⴻⵔ ⵍⵃⵉⵔⴰⵏ","latitude":"33.7874750","longitude":"3.1406529"},
{"id":"304","wilaya_id":"3","code":"304","name_ar":"سيدي مخلوف","name_en":"Sidi Makhlouf","name_ber":"ⵙⵉⴷⵉ ⵎⴻⵅⵍⵓⴼ","latitude":"34.1308393","longitude":"3.0193920"},
{"id":"306","wilaya_id":"3","code":"306","name_ar":"حاسي الرمل","name_en":"Hassi R\\&amp;#039;Mel","name_ber":"حاسي الرمل","latitude":"32.9500313","longitude":"3.2735210"},
{"id":"307","wilaya_id":"3","code":"307","name_ar":"عين ماضي","name_en":"Aïn Madhi","name_ber":"ⵄⵉⵏ ⵎⴰⴹⵉ","latitude":"33.7970620","longitude":"2.3059156"},
{"id":"310","wilaya_id":"3","code":"310","name_ar":"قتلة سيدي سعيد","name_en":"Gueltat Sidi Saad","name_ber":"ⴳⴻⵍⵜⴰⵜ ⵙⵉⴷⵉ ⵙⴰⵄⴷ","latitude":"34.2974095","longitude":"1.9474932"},
{"id":"313","wilaya_id":"3","code":"313","name_ar":"بريدة","name_en":"Brida","name_ber":"ⴱⵔⵉⴷⴰ","latitude":"33.9067850","longitude":"1.7837801"},
{"id":"314","wilaya_id":"3","code":"314","name_ar":"الغيشة","name_en":"El Ghicha","name_ber":"ⵍⵖⵉⵛⴰ","latitude":"33.9288065","longitude":"2.1446052"},
{"id":"319","wilaya_id":"3","code":"319","name_ar":"أفلو","name_en":"Aflou","name_ber":"ⴰⴼⵍⵓ","latitude":"34.1125200","longitude":"2.1002900"},
{"id":"321","wilaya_id":"3","code":"321","name_ar":"وادي مرة","name_en":"Oued Morra","name_ber":"ⵡⴰⴷ ⵎⵓⵔⵔⴰ","latitude":"34.1649241","longitude":"2.3247059"},
{"id":"401","wilaya_id":"4","code":"401","name_ar":"أم البواقي","name_en":"Oum El Bouaghi","name_ber":"ⵓⵎⵍⴻⴱⵡⴰⵖⵉ","latitude":"35.8105805","longitude":"7.0184178"},
{"id":"402","wilaya_id":"4","code":"402","name_ar":"عين البيضاء","name_en":"Aïn Beïda","name_ber":"ⵄⵉⵏ ⵍⴱⴰⵢⴹⴰ","latitude":"35.7952839","longitude":"7.3894346"},
{"id":"403","wilaya_id":"4","code":"403","name_ar":"عين مليلة","name_en":"Ain M\\&amp;#039;lila","name_ber":"ⵄⵉⵏ ⵎⵍⵉⵍⴰ","latitude":"36.0375444","longitude":"6.5709860"},
{"id":"406","wilaya_id":"4","code":"406","name_ar":"سيقوس","name_en":"Sigus","name_ber":"ⵙⵉⴳⵓⵙ","latitude":"36.1239401","longitude":"6.7854947"},
{"id":"408","wilaya_id":"4","code":"408","name_ar":"عين ببوش","name_en":"Ain Bibouch","name_ber":"عين ببوش","latitude":"36.1263600","longitude":"6.3774334"},
{"id":"411","wilaya_id":"4","code":"411","name_ar":"الضلعة","name_en":"Dhalaa","name_ber":"ⴹⴹⴻⵍⵄⴰ","latitude":"35.4602850","longitude":"7.5500058"},
{"id":"412","wilaya_id":"4","code":"412","name_ar":"عين كرشة","name_en":"Aïn Kercha","name_ber":"ⵄⵉⵏ ⴽⴻⵔⵛⴰ","latitude":"35.9233662","longitude":"6.7022898"},
{"id":"416","wilaya_id":"4","code":"416","name_ar":"فكيرينة","name_en":"F\\&amp;#039;Kirina","name_ber":"ⴼⴽⵉⵔⵉⵏⴰ","latitude":"35.6608817","longitude":"7.2972243"},
{"id":"417","wilaya_id":"4","code":"417","name_ar":"سوق نعمان","name_en":"Souk Naamane","name_ber":"ⵙⵓⵇ ⵏⴻⵄⵎⴰⵏ","latitude":"35.8953079","longitude":"6.3925749"},
{"id":"422","wilaya_id":"4","code":"422","name_ar":"قصر الصباحي","name_en":"Ksar Sbahi","name_ber":"ⵇⵚⴻⵔ ⵚⴻⴱⴱⴰⵃⵉ","latitude":"36.0614655","longitude":"7.2530315"},
{"id":"424","wilaya_id":"4","code":"424","name_ar":"مسكيانة","name_en":"Meskiana","name_ber":"ⵎⴻⵙⴽⵢⴰⵏⴰ","latitude":"35.6291407","longitude":"7.6694143"},
{"id":"425","wilaya_id":"4","code":"425","name_ar":"عين فكرون","name_en":"Aïn Fakroun","name_ber":"ⵄⵉⵏ ⴼⴻⴽⵔⵓⵏ","latitude":"35.9735846","longitude":"6.8759954"},
{"id":"501","wilaya_id":"5","code":"501","name_ar":"باتنة","name_en":"Batna","name_ber":"ⵜⴱⴰⵜⴻⵏⵜ","latitude":"35.3384291","longitude":"5.7315453"},
{"id":"504","wilaya_id":"5","code":"504","name_ar":"مروانة","name_en":"Merouana","name_ber":"ⵜⴰⵎⴻⵔⵡⴰⵏⵜ","latitude":"35.6320555","longitude":"5.9131380"},
{"id":"505","wilaya_id":"5","code":"505","name_ar":"سريانة","name_en":"Seriana","name_ber":"ⵙⴻⵔⵢⴰⵏⴰ","latitude":"35.6925612","longitude":"6.1850558"},
{"id":"506","wilaya_id":"5","code":"506","name_ar":"منعة","name_en":"Menaa District","name_ber":"ⵝⴰⴷⴰⵢⵔⴰ ⵏ ⵎⴻⵏⵄⴰ","latitude":"35.0926941","longitude":"6.0137530"},
{"id":"507","wilaya_id":"5","code":"507","name_ar":"المعذر","name_en":"El Madher","name_ber":"ⵜⴰⵃⴻⵎⵎⴰⵎⵜ","latitude":"35.6258746","longitude":"6.3706722"},
{"id":"508","wilaya_id":"5","code":"508","name_ar":"تازولت","name_en":"Tazoult","name_ber":"ⵜⴰⵥⵓⵍⵜ","latitude":"35.4860091","longitude":"6.2536097"},
{"id":"509","wilaya_id":"5","code":"509","name_ar":"نقاوس","name_en":"N\\&amp;#039;Gaous","name_ber":"نقاوس","latitude":"35.5546743","longitude":"5.6037832"},
{"id":"516","wilaya_id":"5","code":"516","name_ar":"أريس","name_en":"Arris","name_ber":"ⴰⵔⵔⵉⵙ","latitude":"35.2585140","longitude":"6.3449818"},
{"id":"519","wilaya_id":"5","code":"519","name_ar":"عين جاسر","name_en":"Aïn Djasser","name_ber":"ⵙⵙⴻⴱⵜ ⴱⵓⵖⵣⴰⵍ","latitude":"35.8596869","longitude":"6.0012835"},
{"id":"529","wilaya_id":"5","code":"529","name_ar":"سقانة","name_en":"Seggana","name_ber":"ⵜⴰⵙⴳⴰⵏⵜ","latitude":"35.3641602","longitude":"5.5719001"},
{"id":"530","wilaya_id":"5","code":"530","name_ar":"إشمول","name_en":"Ichemoul","name_ber":"ⵛ ⵏ ⵓⵍ","latitude":"35.3095106","longitude":"6.5100105"},
{"id":"535","wilaya_id":"5","code":"535","name_ar":"بوزينة","name_en":"Bouzina","name_ber":"ⴱⵓⵣⵉⵏⴰ","latitude":"35.2648362","longitude":"6.0988647"},
{"id":"536","wilaya_id":"5","code":"536","name_ar":"الشمرة","name_en":"Chemora","name_ber":"ⵛⴻⵎⵎⵓⵔⴰ","latitude":"35.6670882","longitude":"6.6433334"},
{"id":"542","wilaya_id":"5","code":"542","name_ar":"بريكة","name_en":"Barika","name_ber":"ⴱⴰⵔⵉⴽⴰ","latitude":"35.3845042","longitude":"5.3705996"},
{"id":"543","wilaya_id":"5","code":"543","name_ar":"الجزار","name_en":"Djezzar","name_ber":"ⴳⴻⵣⵣⴰⵔ","latitude":"35.5082551","longitude":"5.2676704"},
{"id":"544","wilaya_id":"5","code":"544","name_ar":"تكوت","name_en":"T\\&amp;#039;Kout","name_ber":"ⵜⴽⵓⴽⵜ","latitude":"35.1403816","longitude":"6.3085503"},
{"id":"545","wilaya_id":"5","code":"545","name_ar":"عين التوتة","name_en":"Aïn Touta","name_ber":"ⵉⵏ ⵜⵓⵜⴰ","latitude":"35.3752089","longitude":"5.8942130"},
{"id":"547","wilaya_id":"5","code":"547","name_ar":"ثنية العابد","name_en":"Teniet El Abed","name_ber":"ⵜⵉⵙⵉⵏⵜ ⵍⵄⴻⴱⴷ","latitude":"35.2550676","longitude":"6.2012328"},
{"id":"550","wilaya_id":"5","code":"550","name_ar":"تيمقاد","name_en":"Timgad","name_ber":"ⵜⴰⵎⵓⴳⴰⴷⵉ","latitude":"35.4938565","longitude":"6.4705695"},
{"id":"551","wilaya_id":"5","code":"551","name_ar":"رأس العيون","name_en":"Ras El Aioun","name_ber":"ⵉⵅⴻⴼ ⵏ ⵜⴰⵍⴰⵡⵉⵏ","latitude":"35.6758524","longitude":"5.6515672"},
{"id":"553","wilaya_id":"5","code":"553","name_ar":"أولاد سي سليمان","name_en":"Ouled Si Slimane","name_ber":"ⴰⵢⵜ ⵙⵉ ⵙⵍⵉⵎⴰⵏ","latitude":"35.6104300","longitude":"5.6322042"},
{"id":"601","wilaya_id":"6","code":"601","name_ar":"بجاية","name_en":"Bejaia","name_ber":"ⴲⴳⴰⵢⴻⵝ","latitude":"36.7511783","longitude":"5.0643687"},
{"id":"602","wilaya_id":"6","code":"602","name_ar":"أميزور","name_en":"Amizour","name_ber":"ⴰⵎⵉⵣⵓⵔ","latitude":"36.6439022","longitude":"4.9036535"},
{"id":"607","wilaya_id":"6","code":"607","name_ar":"تيمزريت","name_en":"Timezrit","name_ber":"ⵜⵉⵎⴻⵣⵔⵉⵜ","latitude":"36.6155736","longitude":"4.7683245"},
{"id":"608","wilaya_id":"6","code":"608","name_ar":"سوق الإثنين","name_en":"Souk El Tenine","name_ber":"ⵙⵓⵇ ⵍⴻⵜⵏⵉⵏ","latitude":"36.5950832","longitude":"4.0073010"},
{"id":"611","wilaya_id":"6","code":"611","name_ar":"تيشي","name_en":"Tichy","name_ber":"ⵜⵉⵛⵉ","latitude":"36.6689510","longitude":"5.1574875"},
{"id":"617","wilaya_id":"6","code":"617","name_ar":"إغيل علي","name_en":"Ighil Ali","name_ber":"ⵉⵖⵉⵍ ⴰⵍⵉ","latitude":"36.3378593","longitude":"4.4701960"},
{"id":"620","wilaya_id":"6","code":"620","name_ar":"درقينة","name_en":"Darguina","name_ber":"ⴷⴻⵔⴳⵓⵉⵏⴰ","latitude":"36.5643070","longitude":"5.3063118"},
{"id":"622","wilaya_id":"6","code":"622","name_ar":"أوقاس","name_en":"Aokas","name_ber":"ⴰⵡⵇⴰⵙ","latitude":"36.6376518","longitude":"5.2453122"},
{"id":"624","wilaya_id":"6","code":"624","name_ar":"أدكار","name_en":"Polyclinique Adekar","name_ber":"Polyclinique Adekar","latitude":"36.6917220","longitude":"4.6737118"},
{"id":"625","wilaya_id":"6","code":"625","name_ar":"أقبو","name_en":"Akbou","name_ber":"Akbou","latitude":"36.4564558","longitude":"4.5430672"},
{"id":"626","wilaya_id":"6","code":"626","name_ar":"صدوق","name_en":"Seddouk","name_ber":"ⵙⴻⴷⴷⵓⵇ","latitude":"36.5472337","longitude":"4.6894642"},
{"id":"627","wilaya_id":"6","code":"627","name_ar":"تازملت","name_en":"Tazmalt","name_ber":"ⵜⴰⵣⵎⴰⵍⵜ","latitude":"36.3885111","longitude":"4.4000106"},
{"id":"629","wilaya_id":"6","code":"629","name_ar":"شميني","name_en":"Chemini","name_ber":"ⵛⴻⵎⵎⵉⵏⵉ","latitude":"36.5944018","longitude":"4.6210413"},
{"id":"634","wilaya_id":"6","code":"634","name_ar":"برباشة","name_en":"Barbacha","name_ber":"ⵉⴲⴻⵔⴲⴰⵛⴻⵍ","latitude":"36.5734726","longitude":"4.9693825"},
{"id":"636","wilaya_id":"6","code":"636","name_ar":"إفري أوزلاقن","name_en":"Ifri","name_ber":"ⵉⴼⵔⵉ","latitude":"36.5503357","longitude":"4.5527421"},
{"id":"639","wilaya_id":"6","code":"639","name_ar":"سيدي عيش","name_en":"Sidi Aich","name_ber":"ⵙⵉⴷⵉ ⵄⵉⵛ","latitude":"36.6127914","longitude":"4.6913091"},
{"id":"640","wilaya_id":"6","code":"640","name_ar":"القصر","name_en":"El Kseur","name_ber":"ⵍⴻⵇⵙⴻⵔ","latitude":"36.6794351","longitude":"4.8523757"},
{"id":"644","wilaya_id":"6","code":"644","name_ar":"خراطة","name_en":"Kherrata","name_ber":"ⵅⴻⵕⴰⵟⴰ","latitude":"36.4936262","longitude":"5.2771041"},
{"id":"650","wilaya_id":"6","code":"650","name_ar":"بني معوش","name_en":"Beni Maouche","name_ber":"ⴰⵢⵜ ⵡⴻⵎⵄⵓⵛ","latitude":"36.4876990","longitude":"4.7874919"},
{"id":"701","wilaya_id":"7","code":"701","name_ar":"بسكرة","name_en":"Biskra","name_ber":"ⴱⴻⵙⴽⵔⴰ","latitude":"34.7845635","longitude":"5.8124353"},
{"id":"705","wilaya_id":"51","code":"705","name_ar":"أولاد جلال","name_en":"Ouled Djellal","name_ber":"ⵡⵍⴻⴷ ⴵⴻⵍⴰⵍ","latitude":"34.1049040","longitude":"4.8203009"},
{"id":"708","wilaya_id":"51","code":"708","name_ar":"سيدي  خالد","name_en":"Sidi Khaled","name_ber":"ⵙⵉⴸⵉ ⵅⴰⵍⴻⴷ","latitude":"34.3915907","longitude":"5.0005177"},
{"id":"711","wilaya_id":"7","code":"711","name_ar":"سيدي عقبة","name_en":"Sidi Okba","name_ber":"ⵙⵉⴷⵉ oⴽⴱⴰ","latitude":"34.7497613","longitude":"5.9107849"},
{"id":"712","wilaya_id":"7","code":"712","name_ar":"مشونش","name_en":"M\\&amp;#039;Chouneche","name_ber":"ⵎⵛⵓⵏⴻⵛ","latitude":"34.9368872","longitude":"5.9905011"},
{"id":"715","wilaya_id":"7","code":"715","name_ar":"زريبة الوادي","name_en":"Zeribet El Oued","name_ber":"ⵣⵔⵉⴱⴻⵜ ⵍⵡⴰⴷ","latitude":"34.6830199","longitude":"6.5047333"},
{"id":"717","wilaya_id":"7","code":"717","name_ar":"القنطرة","name_en":"El Kantara","name_ber":"ⵜⵉⴳⴻⵏⵜⴻⵔⵜ","latitude":"35.2231152","longitude":"5.7092844"},
{"id":"719","wilaya_id":"7","code":"719","name_ar":"الوطاية","name_en":"بن محمد الحاج و وليد الوطاية","name_ber":"بن محمد الحاج و وليد الوطاية","latitude":"35.0239254","longitude":"5.5757202"},
{"id":"720","wilaya_id":"7","code":"720","name_ar":"جمورة","name_en":"Djemourah","name_ber":"ⴵⵎⵓⵔⴰ","latitude":"35.0689799","longitude":"5.8448638"},
{"id":"721","wilaya_id":"7","code":"721","name_ar":"طولقة","name_en":"Tulqa","name_ber":"ⵜⴰⵍⴳⴰ","latitude":"34.7321200","longitude":"5.3830752"},
{"id":"724","wilaya_id":"7","code":"724","name_ar":"أورلال","name_en":"Ourlal","name_ber":"ⵓⵔⵍⴰⵍ","latitude":"34.6562915","longitude":"5.5120852"},
{"id":"726","wilaya_id":"7","code":"726","name_ar":"فوغالة","name_en":"Foughala","name_ber":"ⴼⵓⵖⴰⵍⴰ","latitude":"34.7309552","longitude":"5.3260042"},
{"id":"801","wilaya_id":"8","code":"801","name_ar":"بشار","name_en":"Bashar","name_ber":"ⴱⵛⴰⵔ","latitude":"31.3857260","longitude":"-2.0115958"},
{"id":"803","wilaya_id":"52","code":"803","name_ar":"أولاد خضير","name_en":"Ouled Khoudir","name_ber":"ⴰⵢⵜ ⵅⵓⴷⵉⵔ","latitude":"29.2565086","longitude":"-1.0596458"},
{"id":"806","wilaya_id":"8","code":"806","name_ar":"لحمر","name_en":"Lahmar","name_ber":"ⵍⴰⵃⵎⴻⵔ","latitude":"31.9326993","longitude":"-2.2593871"},
{"id":"807","wilaya_id":"52","code":"807","name_ar":"بني عباس","name_en":"Beni Abbes","name_ber":"ⴰⵢⵜ ⴰⴱⴱⴰⵙ","latitude":"29.0832020","longitude":"-2.6590060"},
{"id":"810","wilaya_id":"8","code":"810","name_ar":"القنادسة","name_en":"Kenadsa","name_ber":"ⵇⵏⴰⴷⵙⴰ","latitude":"31.5545321","longitude":"-2.4326610"},
{"id":"811","wilaya_id":"52","code":"811","name_ar":"إقلي","name_en":"Igli","name_ber":"ⵉⴳⵍⵉ","latitude":"30.4528493","longitude":"-2.2908264"},
{"id":"812","wilaya_id":"8","code":"812","name_ar":"تبلبالة","name_en":"Tabelbala","name_ber":"ⵜⴰⴱⴻⵍⴱⴰⵍⴰ","latitude":"29.4054154","longitude":"-3.2553664"},
{"id":"813","wilaya_id":"8","code":"813","name_ar":"تاغيت","name_en":"Taghit","name_ber":"ⵜⴰⵖⵉⵜ","latitude":"30.9170611","longitude":"-2.0294754"},
{"id":"814","wilaya_id":"52","code":"814","name_ar":"الواتة","name_en":"Al Wata","name_ber":"ⵍⵡⴰⵜⴰ","latitude":"29.8608014","longitude":"-1.8496314"},
{"id":"817","wilaya_id":"8","code":"817","name_ar":"العبادلة","name_en":"Abadla","name_ber":"ⵄⴱⴰⴷⵍⴰ","latitude":"31.0274839","longitude":"-2.7104418"},
{"id":"818","wilaya_id":"52","code":"818","name_ar":"كرزاز","name_en":"Kerzaz","name_ber":"ⴽⴻⵔⵣⴰⵣ","latitude":"29.4516146","longitude":"-1.4165298"},
{"id":"821","wilaya_id":"8","code":"821","name_ar":"بني ونيف","name_en":"Beni Ounif","name_ber":"ⴰⵢⵜ ⵓⵏⵏⵉⴼ","latitude":"32.0501891","longitude":"-1.2486808"},
{"id":"901","wilaya_id":"9","code":"901","name_ar":"البليدة","name_en":"Blida","name_ber":"ⵍⴻⴱⵍⵉⴸⴰ","latitude":"36.4701645","longitude":"2.8287985"},
{"id":"903","wilaya_id":"9","code":"903","name_ar":"بوعينان","name_en":"Bouinan","name_ber":"ⴱⵓ ⵉⵏⴰⵏ","latitude":"36.5322102","longitude":"2.9918496"},
{"id":"904","wilaya_id":"9","code":"904","name_ar":"وادي العلايق","name_en":"Oued El Alleug","name_ber":"ⵡⴻⴷ ⵍⵄⴻⵍⵍⴰⵢⴻⴳ","latitude":"36.5558374","longitude":"2.7896358"},
{"id":"905","wilaya_id":"9","code":"905","name_ar":"أولاد يعيش","name_en":"Ouled Aiche","name_ber":"ⵡⵍⴰⴷ ⵢⴰⵄⵉⵛ","latitude":"35.8032888","longitude":"0.9717540"},
{"id":"907","wilaya_id":"9","code":"907","name_ar":"العفرون","name_en":"El Affroun","name_ber":"ⵍⵄⴻⴼⵕⵓⵏ","latitude":"36.4697500","longitude":"2.6267421"},
{"id":"912","wilaya_id":"9","code":"912","name_ar":"موزاية","name_en":"Mouzaia","name_ber":"ⵎⵓⵣⴰⵢⴰ","latitude":"36.4674416","longitude":"2.6879953"},
{"id":"914","wilaya_id":"9","code":"914","name_ar":"مفتاح","name_en":"Meftah","name_ber":"ⵎⴻⴼⵜⴰⵃ","latitude":"36.6198845","longitude":"3.2222298"},
{"id":"916","wilaya_id":"9","code":"916","name_ar":"بوفاريك","name_en":"Boufarik","name_ber":"ⴱⵓ ⴼⴰⵔⵉⴽ","latitude":"36.5755523","longitude":"2.9128963"},
{"id":"917","wilaya_id":"9","code":"917","name_ar":"الأربعاء","name_en":"Larbaa","name_ber":"ⵍⴰⵔⴱⵄⴰ","latitude":"36.5627858","longitude":"3.1565758"},
{"id":"922","wilaya_id":"9","code":"922","name_ar":"بوقرة","name_en":"Bougara","name_ber":"ⴱⵓⴳⴻⵔⵔⴰ","latitude":"35.5551256","longitude":"1.9636530"},
{"id":"1001","wilaya_id":"10","code":"1001","name_ar":"البويرة","name_en":"Bouira","name_ber":"ⵜⵓⴱⵉⵔⴻⵜ","latitude":"36.2316481","longitude":"3.9082579"},
{"id":"1004","wilaya_id":"10","code":"1004","name_ar":"سوق الخميس","name_en":"Souk El Khemis","name_ber":"ⵙⵓⵇ ⵍⴻⵅⵎⵉⵙ","latitude":"36.3912273","longitude":"3.6317780"},
{"id":"1005","wilaya_id":"10","code":"1005","name_ar":"القادرية","name_en":"Kadiria","name_ber":"ⵍⵇⴰⴷⵉⵔⵉⵢⴰ","latitude":"36.5354385","longitude":"3.6788401"},
{"id":"1012","wilaya_id":"10","code":"1012","name_ar":"الحيزر","name_en":"Haizer","name_ber":"ⵃⵉⵥⴻⵔ","latitude":"36.3979925","longitude":"3.9994448"},
{"id":"1013","wilaya_id":"10","code":"1013","name_ar":"الأخضرية","name_en":"Lakhdaria","name_ber":"ⵍⴰⴽⵀⴷⴰⵔⵉⴰ","latitude":"36.5644827","longitude":"3.5967523"},
{"id":"1015","wilaya_id":"10","code":"1015","name_ar":"الهاشمية","name_en":"El Hachimia","name_ber":"ⵍⵀⴰⵛⵉⵎⵉⵢⴰ","latitude":"36.2225033","longitude":"3.8142848"},
{"id":"1018","wilaya_id":"10","code":"1018","name_ar":"برج أوخريص","name_en":"Bordj Oukhris","name_ber":"ⴱⵓⵔⴵ ⵓⵅⵔⵉⵙ","latitude":"36.0932471","longitude":"3.9107303"},
{"id":"1033","wilaya_id":"10","code":"1033","name_ar":"بشلول","name_en":"Bechloul","name_ber":"ⴱⴻⵛⵍⵓⵍ","latitude":"36.3121950","longitude":"4.0749566"},
{"id":"1035","wilaya_id":"10","code":"1035","name_ar":"عين بسام","name_en":"Aïn Bessem","name_ber":"ⵄⵉⵏ ⴱⴻⵙⵙⴰⵎ","latitude":"36.2929113","longitude":"3.6735417"},
{"id":"1036","wilaya_id":"10","code":"1036","name_ar":"بئر غبالو","name_en":"Bir Ghbalou","name_ber":"ⴱⵉⵔ ⵖⴱⴰⵍⵓ","latitude":"36.2628812","longitude":"3.5850113"},
{"id":"1037","wilaya_id":"10","code":"1037","name_ar":"مشد الله","name_en":"M\\&amp;#039;Chedallah","name_ber":"ⵉⵎⵛⴻⴷⴷⴰⵍⴻⵏ","latitude":"36.3646864","longitude":"4.2711718"},
{"id":"1038","wilaya_id":"10","code":"1038","name_ar":"سور الغزلان","name_en":"Sour El Ghozlane","name_ber":"ⵙⵓⵔ ⵍⵖⴻⵣⵍⴰⵏ","latitude":"36.1473760","longitude":"3.6917970"},
{"id":"1101","wilaya_id":"11","code":"1101","name_ar":"تمنراست","name_en":"Tamanrasset","name_ber":"ⵜⴰⵎⴰⵏⵖⴰⵙⴻⵜ","latitude":"24.3753438","longitude":"4.3208436"},
{"id":"1102","wilaya_id":"11","code":"1102","name_ar":"سيلت","name_en":"Silet","name_ber":"سيلت","latitude":"22.6572370","longitude":"4.5695210"},
{"id":"1103","wilaya_id":"53","code":"1103","name_ar":"إينغر","name_en":"In Ghar","name_ber":"ⵉⵏ ⵖⴰⵔ","latitude":"27.1018319","longitude":"1.9065264"},
{"id":"1104","wilaya_id":"54","code":"1104","name_ar":"عين قزام","name_en":"In Guezzam","name_ber":"ⵄⵉⵏ ⴳⴻⵣⵣⴰⵎ","latitude":"20.4275300","longitude":"4.6766310"},
{"id":"1106","wilaya_id":"11","code":"1106","name_ar":"تاظروك","name_en":"Tazrouk","name_ber":"ⵜⴰⵥⵔⵓⴽ","latitude":"23.4196225","longitude":"6.2658907"},
{"id":"1107","wilaya_id":"11","code":"1107","name_ar":"تين زواتين","name_en":"Tinzaouten","name_ber":"ⵜⵉⵏⵣⴰⵡⴰⵜⵉⵏ","latitude":"19.9541906","longitude":"2.9694782"},
{"id":"1108","wilaya_id":"53","code":"1108","name_ar":"عين صالح","name_en":"In Salah","name_ber":"ⵄⵉⵏ ⵙⴰⵍⴻⵃ","latitude":"27.1977055","longitude":"3.5212376"},
{"id":"1201","wilaya_id":"12","code":"1201","name_ar":"تبسة","name_en":"Tébessa","name_ber":"ⵜⴱⴻⵙⴰ","latitude":"35.1249450","longitude":"7.9011735"},
{"id":"1202","wilaya_id":"12","code":"1202","name_ar":"بئر العاتر","name_en":"Bir El Ater","name_ber":"ⴱⵉⵔ ⵍⵄⴰⵜⴻⵔ","latitude":"34.7441882","longitude":"8.0584012"},
{"id":"1203","wilaya_id":"12","code":"1203","name_ar":"الشريعة","name_en":"Cheria","name_ber":"ⵛⵔⵉⵄⴰ","latitude":"35.2706778","longitude":"7.7527115"},
{"id":"1205","wilaya_id":"12","code":"1205","name_ar":"العوينات","name_en":"El Aouinet","name_ber":"ⵍⴻⵄⵡⵉⵏⴰⵜ","latitude":"35.8932925","longitude":"3.0358660"},
{"id":"1209","wilaya_id":"12","code":"1209","name_ar":"نقرين","name_en":"Negrine","name_ber":"ⵏⴻⴳⵔⵉⵏ","latitude":"34.4855133","longitude":"7.5219594"},
{"id":"1210","wilaya_id":"12","code":"1210","name_ar":"بئر مقدم","name_en":"بئر مقدم","name_ber":"بئر مقدم","latitude":"35.3728637","longitude":"7.8109346"},
{"id":"1211","wilaya_id":"12","code":"1211","name_ar":"الكويف","name_en":"El Kouif","name_ber":"ⵍⴻⴽⵡⵉⴼ","latitude":"35.5008230","longitude":"8.3219670"},
{"id":"1212","wilaya_id":"12","code":"1212","name_ar":"مرسط","name_en":"Morsott","name_ber":"ⵎⵓⵔⵙⴻⵟ","latitude":"35.6717654","longitude":"8.0102728"},
{"id":"1213","wilaya_id":"12","code":"1213","name_ar":"العقلة","name_en":"El Ogla","name_ber":"ⵍⵄⵓⵇⵍⴰ","latitude":"33.2465995","longitude":"6.9460807"},
{"id":"1219","wilaya_id":"12","code":"1219","name_ar":"الونزة","name_en":"El Ouenza","name_ber":"El Ouenza","latitude":"35.9538121","longitude":"8.1283267"},
{"id":"1220","wilaya_id":"12","code":"1220","name_ar":"الماء الابيض","name_en":"El Ma Labiodh","name_ber":"ⵍⵎⴰ ⵍⴻⴱⵢⴻⴹ","latitude":"35.2060924","longitude":"8.1719694"},
{"id":"1221","wilaya_id":"12","code":"1221","name_ar":"أم علي","name_en":"Oum Ali","name_ber":"ⵓⵎ ⵄⵍⵉ","latitude":"35.0113285","longitude":"8.3007443"},
{"id":"1301","wilaya_id":"13","code":"1301","name_ar":"تلمسان","name_en":"Tlemcen","name_ber":"ⵜⴰⵍⴰ ⵉⵎⵙⴻⵏ","latitude":"34.8817890","longitude":"-1.3166990"},
{"id":"1303","wilaya_id":"13","code":"1303","name_ar":"عين تالوت","name_en":"Aïn Tallout","name_ber":"ⵄⵉⵏ ⵜⴰⵍⵓⵜ","latitude":"34.9299907","longitude":"-0.9542742"},
{"id":"1304","wilaya_id":"13","code":"1304","name_ar":"الرمشي","name_en":"Remchi","name_ber":"ⵔⵔⴻⵎⵛⵉ","latitude":"35.0617268","longitude":"-1.4318326"},
{"id":"1306","wilaya_id":"13","code":"1306","name_ar":"صبرة","name_en":"Sabra","name_ber":"ⵚⴰⴱⵔⴰ","latitude":"34.8260248","longitude":"-1.5303350"},
{"id":"1307","wilaya_id":"13","code":"1307","name_ar":"الغزوات","name_en":"Ghazaouet","name_ber":"ⵍⵖⴰⵣⴰⵡⴰⵜ","latitude":"35.0938630","longitude":"-1.8632200"},
{"id":"1313","wilaya_id":"13","code":"1313","name_ar":"أولاد ميمون","name_en":"Ouled Mimoun","name_ber":"ⵡⵍⴰⴷ ⵎⵉⵎⵓⵏ","latitude":"34.9047940","longitude":"-1.0281674"},
{"id":"1317","wilaya_id":"13","code":"1317","name_ar":"بني سنوس","name_en":"Beni Snous","name_ber":"ⴱⴻⵏⵉ ⵙⴻⵏⵏⵓⵙ","latitude":"34.6622020","longitude":"-1.5397782"},
{"id":"1318","wilaya_id":"13","code":"1318","name_ar":"باب العسة","name_en":"Bab El Assa","name_ber":"ⴱⴰⴱ ⵍⵄⴻⵙⵙⴰ","latitude":"34.9661057","longitude":"-2.0317999"},
{"id":"1320","wilaya_id":"13","code":"1320","name_ar":"فلاوسن","name_en":"Fellaoucene","name_ber":"ⴼⵍⴰⵡⵙⴻⵏ","latitude":"35.0349898","longitude":"-1.5991302"},
{"id":"1324","wilaya_id":"13","code":"1324","name_ar":"بن سكران","name_en":"Bensekrane","name_ber":"ⴱⴻⵏ ⵙⴻⴽⵔⴰⵏ","latitude":"35.0720630","longitude":"-1.2273507"},
{"id":"1326","wilaya_id":"13","code":"1326","name_ar":"الحناية","name_en":"Hennaya","name_ber":"ⵍⴻⵃⵏⴰⵢⴰ","latitude":"34.9506637","longitude":"-1.3667337"},
{"id":"1327","wilaya_id":"13","code":"1327","name_ar":"مغنية","name_en":"Maghnia","name_ber":"ⵎⴻⵖⵏⵉⵢⴰ","latitude":"34.8471990","longitude":"-1.7296580"},
{"id":"1335","wilaya_id":"13","code":"1335","name_ar":"سبدو","name_en":"Sebdou","name_ber":"ⵙⴻⴱⴷⵓ","latitude":"34.6403022","longitude":"-1.3220383"},
{"id":"1338","wilaya_id":"13","code":"1338","name_ar":"بني بوسعيد","name_en":"Beni Boussaid","name_ber":"ⴱⴻⵏⵉ ⴱⵓⵙⵄⵉⴷ","latitude":"34.6480251","longitude":"-1.7529879"},
{"id":"1339","wilaya_id":"13","code":"1339","name_ar":"مرسى بن مهيدي","name_en":"Marsa Ben M\\&amp;#039;Hidi","name_ber":"ⵎⴻⵔⵙⴰ ⴱⴻⵏ ⵎⵀⵉⴷⵉ","latitude":"35.0817992","longitude":"-2.2043971"},
{"id":"1340","wilaya_id":"13","code":"1340","name_ar":"ندرومة","name_en":"Nedroma","name_ber":"ⵏⴻⴷⵔⵓⵎⴰ","latitude":"35.0107602","longitude":"-1.7480500"},
{"id":"1341","wilaya_id":"13","code":"1341","name_ar":"سيدي الجيلالي","name_en":"Sidi Djillali","name_ber":"ⵙⵉⴷⵉ ⴵⵉⵍⴰⵍⵉ","latitude":"34.4446804","longitude":"-1.5662513"},
{"id":"1344","wilaya_id":"13","code":"1344","name_ar":"هنين","name_en":"Honaine","name_ber":"ⵀⵓⵏⴰⵢⵏ","latitude":"35.1564760","longitude":"-1.6745654"},
{"id":"1350","wilaya_id":"13","code":"1350","name_ar":"شتوان","name_en":"Chetouane","name_ber":"ⵛⴻⵜⵡⴰⵏ","latitude":"34.9207591","longitude":"-1.2910642"},
{"id":"1351","wilaya_id":"13","code":"1351","name_ar":"منصورة","name_en":"Mansourah","name_ber":"ⵎⴻⵏⵙⵓⵔⴰ","latitude":"34.8730025","longitude":"-1.3296478"},
{"id":"1401","wilaya_id":"14","code":"1401","name_ar":"تيارت","name_en":"Tiaret","name_ber":"ⵜⵢⴰⵔⴻⵜ","latitude":"34.8947575","longitude":"1.5945792"},
{"id":"1402","wilaya_id":"14","code":"1402","name_ar":"مدروسة","name_en":"Medroussa","name_ber":"ⵎⴻⴷⵔⵓⵙⴰ","latitude":"35.1830659","longitude":"1.1552709"},
{"id":"1406","wilaya_id":"14","code":"1406","name_ar":"عين الذهب","name_en":"Aïn Deheb","name_ber":"ⵄⵉⵏ ⴷⵀⴻⴱ","latitude":"34.8464030","longitude":"1.5507838"},
{"id":"1413","wilaya_id":"14","code":"1413","name_ar":"دحموني","name_en":"Dahmouni","name_ber":"ⴷⴻⵃⵎⵓⵏⵉ","latitude":"35.4167989","longitude":"1.4746045"},
{"id":"1414","wilaya_id":"14","code":"1414","name_ar":"رحوية","name_en":"Rahouia","name_ber":"ⵔⴻⵃⵡⵉⵢⵢⴰ","latitude":"35.5303200","longitude":"1.0237833"},
{"id":"1415","wilaya_id":"14","code":"1415","name_ar":"مهدية","name_en":"Mahdia","name_ber":"ⵎⴻⵀⴷⵉⵢⵢⴰ","latitude":"35.4305691","longitude":"1.7549535"},
{"id":"1416","wilaya_id":"14","code":"1416","name_ar":"السوقر","name_en":"Sougueur","name_ber":"ⵙⵓⴳⴻⵔ","latitude":"35.1861670","longitude":"1.4967450"},
{"id":"1421","wilaya_id":"14","code":"1421","name_ar":"مغيلة","name_en":"Meghila","name_ber":"ⵎⵖⵉⵍⴰ","latitude":"35.5964786","longitude":"1.4137157"},
{"id":"1427","wilaya_id":"14","code":"1427","name_ar":"فرندة","name_en":"Frenda","name_ber":"ⴼⵔⴻⵏⴷⴰ","latitude":"35.0655965","longitude":"1.0566092"},
{"id":"1428","wilaya_id":"14","code":"1428","name_ar":"عين كرمس","name_en":"Aïn Kermes","name_ber":"ⵄⵉⵏ ⴽⴻⵔⵎⴻⵙ","latitude":"34.9097511","longitude":"1.1110349"},
{"id":"1429","wilaya_id":"14","code":"1429","name_ar":"قصر الشلالة","name_en":"Ksar Chellala","name_ber":"ⵇⵚⴻⵔ ⵛⴻⵍⵍⴰⵍⴰ","latitude":"35.2143453","longitude":"2.3129403"},
{"id":"1433","wilaya_id":"14","code":"1433","name_ar":"وادي ليلي","name_en":"Oued Lilli","name_ber":"ⵡⴰⴷ ⵍⵉⵍⵉ","latitude":"35.5135860","longitude":"1.2699699"},
{"id":"1434","wilaya_id":"14","code":"1434","name_ar":"مشرع الصفا","name_en":"Mechraa sfa","name_ber":"عيادة مشرع الصفاء","latitude":"35.3822160","longitude":"1.0569439"},
{"id":"1435","wilaya_id":"14","code":"1435","name_ar":"حمادية","name_en":"Hamadia","name_ber":"ⵃⴻⵎⵎⴰⴷⵉⵢⴰ","latitude":"35.4584077","longitude":"1.8723935"},
{"id":"1501","wilaya_id":"15","code":"1501","name_ar":"تيزي وزو","name_en":"Tizi Ouzou","name_ber":"ⵝⵉⵣⵉ ⵡⴻⵣⵣⵓ","latitude":"36.6816175","longitude":"4.2371860"},
{"id":"1502","wilaya_id":"15","code":"1502","name_ar":"عين الحمام","name_en":"Ain El Hammam District","name_ber":"ⵝⴰⴷⴰⵢⵔⴰ ⵏ ⵄⵉⵏ ⵍⵃⴻⵎⵎⴰⵎ","latitude":"36.5523717","longitude":"4.3032016"},
{"id":"1509","wilaya_id":"15","code":"1509","name_ar":"ماكودة","name_en":"Makouda District","name_ber":"ⵝⴰⴷⴰⵢⵔⴰ ⵏ ⵎⴰⴽⵓⴷ","latitude":"36.7945077","longitude":"4.0956555"},
{"id":"1510","wilaya_id":"15","code":"1510","name_ar":"ذراع الميزان","name_en":"Draa El Mizan District","name_ber":"ⵝⴰⴷⴰⵢⵔⴰ ⵏ ⴸⵔⴰⵄ ⵍⵎⵉⵣⴰⵏ","latitude":"36.5741345","longitude":"3.8724324"},
{"id":"1511","wilaya_id":"15","code":"1511","name_ar":"تيزي غنيف","name_en":"Tizi Ghenif District","name_ber":"ⵝⴰⴷⴰⵢⵔⴰ ⵏ ⵜⵉⵣⵉ ⵖⴻⵏⵏⵉⴼ","latitude":"36.6076050","longitude":"3.7879506"},
{"id":"1517","wilaya_id":"15","code":"1517","name_ar":"إفرحونان","name_en":"Iferhounene","name_ber":"ⵉⴼⴻⵔⵃⵓⵏⴻⵏ","latitude":"36.5341121","longitude":"4.3693504"},
{"id":"1518","wilaya_id":"15","code":"1518","name_ar":"عزازقة","name_en":"Azazga","name_ber":"ⵉⵄⴻⵥⵥⵓⴳⴻⵏ","latitude":"36.7447380","longitude":"4.3716399"},
{"id":"1521","wilaya_id":"15","code":"1521","name_ar":"الأربعاء ناث إيراثن","name_en":"Larbaa Nath Irathen","name_ber":"ⵍⴰⵔⴻⴱⵄⴰ ⵏⴰⵜ ⵢⵉⵔⴰⵜⴻⵏ","latitude":"36.6374918","longitude":"4.2028466"},
{"id":"1522","wilaya_id":"15","code":"1522","name_ar":"تيزي راشد","name_en":"Tizi Rached District","name_ber":"ⵝⴰⴷⴰⵢⵔⴰ ⵏ ⵝⵉⵣⵉ ⵔⴰⵛⴻⴸ","latitude":"36.6684396","longitude":"4.2082486"},
{"id":"1524","wilaya_id":"15","code":"1524","name_ar":"واقنون","name_en":"Ouaguenoun District","name_ber":"ⵝⴰⴷⴰⵢⵔⴰ ⵏ ⵡⴰⴳⵏⵓⵏ","latitude":"36.7831077","longitude":"4.2349478"},
{"id":"1529","wilaya_id":"15","code":"1529","name_ar":"معاتقة","name_en":"Mâatkas","name_ber":"ⵎⵄⴻⵜⵇⴰ","latitude":"36.6107175","longitude":"3.9701861"},
{"id":"1532","wilaya_id":"15","code":"1532","name_ar":"بني دوالة","name_en":"Beni Douala District","name_ber":"ⵝⴰⴷⴰⵢⵔⴰ ⵏ ⴰⵜ ⴷⵡⴰⵍⴰ","latitude":"36.6335991","longitude":"4.0850524"},
{"id":"1534","wilaya_id":"15","code":"1534","name_ar":"بوزقن","name_en":"Bouzguen","name_ber":"ⴱⵓⵢⴻⵣⴳⴰⵏ","latitude":"36.6179239","longitude":"4.4761469"},
{"id":"1536","wilaya_id":"15","code":"1536","name_ar":"واضية","name_en":"Ouadhia District","name_ber":"ⵝⴰⴷⴰⵢⵔⴰ ⵏ ⵉⵡⴰⴹⵉⵢⴻⵏ","latitude":"36.5262715","longitude":"4.0806292"},
{"id":"1537","wilaya_id":"15","code":"1537","name_ar":"أزفون","name_en":"Azeffoun District","name_ber":"ⵝⴰⴷⴰⵢⵔⴰ ⵏ ⴰⵥⴻⴼⴼⵓⵍ","latitude":"36.8380544","longitude":"4.4239397"},
{"id":"1538","wilaya_id":"15","code":"1538","name_ar":"تيقزيرت","name_en":"Tigzirt District","name_ber":"ⵝⴰⴷⴰⵢⵔⴰ ⵏ ⵜⵉⴳⵣⵉⵔⵜ","latitude":"36.8657436","longitude":"4.1567067"},
{"id":"1540","wilaya_id":"15","code":"1540","name_ar":"بوغني","name_en":"Boghni","name_ber":"ⴱⵓⵖⵏⵉ","latitude":"36.5407471","longitude":"3.9571285"},
{"id":"1547","wilaya_id":"15","code":"1547","name_ar":"ذراع بن خدة","name_en":"Draa Ben Khedda District","name_ber":"ⵝⴰⴷⴰⵢⵔⴰ ⵏ ⴷⵔⴰⵄ ⴱⴻⵏ ⵅⴻⴷⴷⴰ","latitude":"36.7209806","longitude":"3.9223308"},
{"id":"1548","wilaya_id":"15","code":"1548","name_ar":"واسيف","name_en":"Ouacif District","name_ber":"ⵝⴰⴷⴰⵢⵔⴰ ⵏ ⴰⵜ ⵡⴰⵙⵉⴼ","latitude":"36.5141609","longitude":"4.1856564"},
{"id":"1550","wilaya_id":"15","code":"1550","name_ar":"مقلع","name_en":"Mekla District","name_ber":"ⵝⴰⴷⴰⵢⵔⴰ ⵏ ⵎⴻⵇⵍⴻⵄ","latitude":"36.6767519","longitude":"4.3053549"},
{"id":"1552","wilaya_id":"15","code":"1552","name_ar":"بني يني","name_en":"Beni Yenni District","name_ber":"ⵝⴰⴷⴰⵢⵔⴰ ⵏ ⴰⵜ ⵢⴻⵏⵏⵉ","latitude":"36.5326627","longitude":"4.2645955"},
{"id":"1602","wilaya_id":"16","code":"1602","name_ar":"سيدي امحمد","name_en":"Sidi M\\&amp;#039;Hamed","name_ber":"ⵙⵉⴷⵉ ⵎⵃⴻⵎⵎⴻⴷ","latitude":"36.7644238","longitude":"3.0496319"},
{"id":"1605","wilaya_id":"16","code":"1605","name_ar":"باب الوادي","name_en":"Bab Al Wadi","name_ber":"ⴱⴰⴱ ⵍⵡⴻⴷ","latitude":"36.7906652","longitude":"3.0497355"},
{"id":"1609","wilaya_id":"16","code":"1609","name_ar":"بئر مراد رايس","name_en":"Bir Mourad Rais","name_ber":"ⴱⵉⵔ ⵎⵓⵔⴰⴷ ⵔⴰⵢⵙ","latitude":"36.7394084","longitude":"3.0500260"},
{"id":"1611","wilaya_id":"16","code":"1611","name_ar":"بوزريعة","name_en":"Bouzareah","name_ber":"ⴱⵓⵣⴰⵔⵔⵉⵄⴰ","latitude":"36.7903720","longitude":"3.0166197"},
{"id":"1613","wilaya_id":"16","code":"1613","name_ar":"الحراش","name_en":"El Harrach","name_ber":"ⵍⵃⴻⵔⵔⴰⵛ","latitude":"36.7212307","longitude":"3.1374104"},
{"id":"1614","wilaya_id":"16","code":"1614","name_ar":"براقي","name_en":"Baraki","name_ber":"ⴱⴰⵔⴰⴽⵉ","latitude":"36.6700049","longitude":"3.1003152"},
{"id":"1617","wilaya_id":"16","code":"1617","name_ar":"حسين داي","name_en":"Hussein Dey","name_ber":"ⵃⵓⵙⵉⵏ ⴷⴻⵢ","latitude":"36.7412362","longitude":"3.1013287"},
{"id":"1620","wilaya_id":"16","code":"1620","name_ar":"الدار البيضاء","name_en":"Dar El Beïda","name_ber":"ⴷⴰⵔ ⵍⴱⴻⵢⴷⴰ","latitude":"36.7149768","longitude":"3.2094611"},
{"id":"1636","wilaya_id":"16","code":"1636","name_ar":"بئر توتة","name_en":"Birtouta","name_ber":"ⴱⴻⵔⵜⵓⵜⴰ","latitude":"36.6449884","longitude":"2.9985533"},
{"id":"1638","wilaya_id":"16","code":"1638","name_ar":"الرويبة","name_en":"Rouiba","name_ber":"ⵔⵡⵉⴱⴰ","latitude":"36.7364706","longitude":"3.2824014"},
{"id":"1644","wilaya_id":"16","code":"1644","name_ar":"زرالدة","name_en":"Zeralda","name_ber":"ⵣⵉⵔⴰⵍⴷⴰ","latitude":"36.7123553","longitude":"2.8409208"},
{"id":"1649","wilaya_id":"16","code":"1649","name_ar":"الدرارية","name_en":"Draria District","name_ber":"ⵝⴰⴷⴰⵢⵔⴰ ⵏ ⴷⵔⴰⵔⵢⴰ","latitude":"36.6895704","longitude":"2.9735389"},
{"id":"1652","wilaya_id":"16","code":"1652","name_ar":"الشراقة","name_en":"Cheraga","name_ber":"ⵛⴻⵔⵔⴰⴳⴰ","latitude":"36.7668415","longitude":"2.9602382"},
{"id":"1701","wilaya_id":"17","code":"1701","name_ar":"الجلفة","name_en":"Djelfa","name_ber":"ⴵⴻⵍⴼⴰ","latitude":"34.3428410","longitude":"3.2172531"},
{"id":"1704","wilaya_id":"17","code":"1704","name_ar":"حاسي بحبح","name_en":"Hassi Bahbah","name_ber":"ⵃⴰⵙⵉ ⴱⴻⵃⴱⴰⵃ","latitude":"35.0721457","longitude":"3.0265016"},
{"id":"1707","wilaya_id":"17","code":"1707","name_ar":"فيض البطمة","name_en":"Feidh El Botma","name_ber":"ⴼⵉⴹ ⵍⴱⵓⵟⵎⴰ","latitude":"34.5286598","longitude":"3.7849090"},
{"id":"1708","wilaya_id":"17","code":"1708","name_ar":"بيرين","name_en":"Perrin","name_ber":"ⴱⵉⵔⵉⵏ","latitude":"35.6337386","longitude":"3.2244016"},
{"id":"1714","wilaya_id":"17","code":"1714","name_ar":"الادريسية","name_en":"El Idrissia","name_ber":"ⴻⵍ ⵉⴷⵔⵉⵙⵉⵢⴰ","latitude":"34.4486677","longitude":"2.5312873"},
{"id":"1717","wilaya_id":"17","code":"1717","name_ar":"مسعد","name_en":"Messaad","name_ber":"ⵎⴻⵙⵙⴰⵄⴷ","latitude":"34.1538348","longitude":"3.4958059"},
{"id":"1719","wilaya_id":"17","code":"1719","name_ar":"سيدي لعجال","name_en":"Sidi Ladjel","name_ber":"ⵙⵉⴷⵉ ⵍⴻⵄⴵⴰⵍ","latitude":"35.4381272","longitude":"2.5157705"},
{"id":"1720","wilaya_id":"17","code":"1720","name_ar":"حد الصحاري","name_en":"Ouled Yahia Sahari","name_ber":"Ouled Yahya Al-Sahari أولاد يحيى السحاري","latitude":"35.4807264","longitude":"3.5047986"},
{"id":"1725","wilaya_id":"17","code":"1725","name_ar":"دار الشيوخ","name_en":"Dar Chioukh","name_ber":"ⴷⴰⵔ ⵛⵛⵢⵓⵅ","latitude":"34.8972924","longitude":"3.4897249"},
{"id":"1726","wilaya_id":"17","code":"1726","name_ar":"الشارف","name_en":"Charef","name_ber":"ⵛⵛⴰⵔⴻⴼ","latitude":"34.6270918","longitude":"2.8059171"},
{"id":"1730","wilaya_id":"17","code":"1730","name_ar":"عين الإبل","name_en":"Ain El Ibel","name_ber":"ⵄⵉⵍ ⴻⵍ ⵉⴱⵉⵍ","latitude":"34.3550616","longitude":"3.2238301"},
{"id":"1731","wilaya_id":"17","code":"1731","name_ar":"عين وسارة","name_en":"Aïn Oussara","name_ber":"ⵄⵉⵏ ⵡⴻⵙⵙⴰⵔⴰ","latitude":"35.4492582","longitude":"2.9071065"},
{"id":"1801","wilaya_id":"18","code":"1801","name_ar":"جيجل","name_en":"Jijel","name_ber":"ⵉⵖⵉⵍ ⴳⵉⵍⵉ","latitude":"36.7292188","longitude":"5.9607776"},
{"id":"1803","wilaya_id":"18","code":"1803","name_ar":"العوانة","name_en":"El Aouana","name_ber":"ⵍⴻⵄⵡⴰⵏⴰ","latitude":"36.7716565","longitude":"5.6114699"},
{"id":"1804","wilaya_id":"18","code":"1804","name_ar":"زيامة منصورية","name_en":"Ziama Mansouriah","name_ber":"ⵣⵢⴰⵎⴰ ⵍⵎⴻⵏⵚⵓⵕⵉⵢⴰ","latitude":"36.6721506","longitude":"5.4808312"},
{"id":"1805","wilaya_id":"18","code":"1805","name_ar":"الطاهير","name_en":"Taher","name_ber":"ⵟⵟⴰⵀⵉⵔ","latitude":"36.7712912","longitude":"5.8975890"},
{"id":"1807","wilaya_id":"18","code":"1807","name_ar":"الشقفة","name_en":"Chekfa","name_ber":"ⵛⵛⴻⵇⴼⴰ","latitude":"36.7712723","longitude":"5.9612456"},
{"id":"1809","wilaya_id":"18","code":"1809","name_ar":"الميلية","name_en":"El Milia","name_ber":"ⵍⵎⵉⵍⵉⵢⴰ","latitude":"36.7514104","longitude":"6.2744614"},
{"id":"1810","wilaya_id":"18","code":"1810","name_ar":"سيدي معروف","name_en":"Sidi Maarouf","name_ber":"ⵙⵉⴷⵉ ⵎⴻⵄⵔⵓⴼ","latitude":"36.6400065","longitude":"6.2741706"},
{"id":"1811","wilaya_id":"18","code":"1811","name_ar":"السطارة","name_en":"Settara","name_ber":"ⵙⴻⵟⵟⴰⵔⴰ","latitude":"36.7052717","longitude":"6.3591657"},
{"id":"1812","wilaya_id":"18","code":"1812","name_ar":"العنصر","name_en":"El Ançor","name_ber":"ⵍⵄⵓⵏⵚⵓⵔ","latitude":"35.6848518","longitude":"-0.8699583"},
{"id":"1817","wilaya_id":"18","code":"1817","name_ar":"جيملة","name_en":"Djimla","name_ber":"ⴵⵎⵉⵍⴰ","latitude":"36.5800948","longitude":"5.8842896"},
{"id":"1824","wilaya_id":"18","code":"1824","name_ar":"تاكسنة","name_en":"Texenna","name_ber":"ⵜⴰⴽⵙⴰⵏⴰ","latitude":"36.6605708","longitude":"5.7909778"},
{"id":"1901","wilaya_id":"19","code":"1901","name_ar":"سطيف","name_en":"Setif","name_ber":"ⵙⵟⵉⴼ","latitude":"36.1892751","longitude":"5.4034930"},
{"id":"1902","wilaya_id":"19","code":"1902","name_ar":"عين الكبيرة","name_en":"Aïn El Kebira","name_ber":"ⵄⵉⵏ ⵍⴻⴽⴱⵉⵔⴰ","latitude":"36.3648446","longitude":"5.5069356"},
{"id":"1903","wilaya_id":"19","code":"1903","name_ar":"بني عزيز","name_en":"Beni Aziz","name_ber":"ⴱⴻⵏⵉ ⵄⵣⵉⵣ","latitude":"36.4768040","longitude":"5.6546651"},
{"id":"1908","wilaya_id":"19","code":"1908","name_ar":"بئر العرش","name_en":"Bir El Arch","name_ber":"ⴱⵉⵔ ⵍⵄⴻⵔⵛ","latitude":"36.1303925","longitude":"5.8392064"},
{"id":"1916","wilaya_id":"19","code":"1916","name_ar":"بابور","name_en":"Babor","name_ber":"ⴱⴰⴱⵓⵔ","latitude":"36.4898622","longitude":"5.5378293"},
{"id":"1917","wilaya_id":"19","code":"1917","name_ar":"قجال","name_en":"Guidjel","name_ber":"ⴳⴻⴵⴵⴰⵍ","latitude":"36.0812780","longitude":"5.4920263"},
{"id":"1920","wilaya_id":"19","code":"1920","name_ar":"العلمة","name_en":"El Eulma","name_ber":"ⴸⵄⴻⵍⵎⴰ","latitude":"36.1529057","longitude":"5.6911588"},
{"id":"1921","wilaya_id":"19","code":"1921","name_ar":"جميلة","name_en":"Djemila","name_ber":"Djémila","latitude":"36.3207427","longitude":"5.7368073"},
{"id":"1922","wilaya_id":"19","code":"1922","name_ar":"بني ورتيلان","name_en":"Beni Ouartilane","name_ber":"ⴰⵜ ⵡⴰⵔⵜⵉⵍⴰⵏ","latitude":"36.4422585","longitude":"4.8557425"},
{"id":"1926","wilaya_id":"19","code":"1926","name_ar":"عين أرنات","name_en":"Aïn Arnat","name_ber":"ⵄⵉⵏ ⵔⵏⴰⵜ","latitude":"36.1849367","longitude":"5.3144869"},
{"id":"1927","wilaya_id":"19","code":"1927","name_ar":"عموشة","name_en":"Amoucha","name_ber":"ⵄⴻⵎⵎⵓⵛⴰ","latitude":"36.3766245","longitude":"5.4181884"},
{"id":"1928","wilaya_id":"19","code":"1928","name_ar":"عين ولمان","name_en":"Aïn Oulmane","name_ber":"ⵄⵉⵏ ⵡⴻⵍⵎⴰⵏ","latitude":"35.9231689","longitude":"5.2959232"},
{"id":"1930","wilaya_id":"19","code":"1930","name_ar":"بوعنداس","name_en":"Bouandas","name_ber":"ⴱⵓⵄⴻⵏⴷⴰⵙ","latitude":"36.5045875","longitude":"5.1036159"},
{"id":"1932","wilaya_id":"19","code":"1932","name_ar":"حمام السخنة","name_en":"Hammam Sokhna","name_ber":"ⵃⴻⵎⵎⴰⵎ ⵙⵙⵓⵅⵏⴰ","latitude":"35.9767593","longitude":"5.8083856"},
{"id":"1939","wilaya_id":"19","code":"1939","name_ar":"صالح باي","name_en":"Salah Bey","name_ber":"ⵚⴰⵍⴰⵃ ⴱⴰⵢ","latitude":"35.8520786","longitude":"5.2904883"},
{"id":"1940","wilaya_id":"19","code":"1940","name_ar":"عين أزال","name_en":"Aïn Azal","name_ber":"ⵄⵉⵏ ⴰⵣⴰⵍ","latitude":"35.8178542","longitude":"5.5111895"},
{"id":"1941","wilaya_id":"19","code":"1941","name_ar":"قنزات","name_en":"Guenzet","name_ber":"ⴳⴻⵏⵣⴰⵜ","latitude":"36.3372055","longitude":"4.8239456"},
{"id":"1943","wilaya_id":"19","code":"1943","name_ar":"بوقاعة","name_en":"Bougaa","name_ber":"ⴱⵓⴳⴰⵄⴰ","latitude":"36.3322264","longitude":"5.0895897"},
{"id":"1950","wilaya_id":"19","code":"1950","name_ar":"حمام قرقور","name_en":"Hammam Guergour","name_ber":"ⵃⴻⵎⵎⴰⵎ ⴳⴻⵔⴳⵓⵔ","latitude":"36.3222697","longitude":"5.0548526"},
{"id":"1955","wilaya_id":"19","code":"1955","name_ar":"ماوكلان","name_en":"Maoklane","name_ber":"ⵎⴰⵡⴽⵍⴰⵏ","latitude":"36.3966860","longitude":"5.0769769"},
{"id":"2001","wilaya_id":"20","code":"2001","name_ar":"سعيدة","name_en":"Saïda","name_ber":"ⵙⵄⵉⴷⴰ","latitude":"34.7433490","longitude":"0.2440764"},
{"id":"2003","wilaya_id":"20","code":"2003","name_ar":"عين الحجر","name_en":"Aïn Lahdjar","name_ber":"ⵄⵉⵏ ⵍⴻⵃⴵⴻⵔ","latitude":"35.9404062","longitude":"5.5408781"},
{"id":"2006","wilaya_id":"20","code":"2006","name_ar":"يوب","name_en":"Youb","name_ber":"ⵢⵓⴱ","latitude":"34.9216720","longitude":"-0.2080540"},
{"id":"2009","wilaya_id":"20","code":"2009","name_ar":"سيدي بوبكر","name_en":"Sidi Boubekeur","name_ber":"ⵙⵉⴷⵉ ⴱⴻⴱⴻⴽⴽⴻⵔ","latitude":"35.0285832","longitude":"0.0577939"},
{"id":"2010","wilaya_id":"20","code":"2010","name_ar":"الحساسنة","name_en":"Hassasna","name_ber":"ⵃⴻⵙⵙⴰⵙⵏⴰ","latitude":"35.2738960","longitude":"-0.9892456"},
{"id":"2014","wilaya_id":"20","code":"2014","name_ar":"أولاد ابراهيم","name_en":"Ouled Brahim","name_ber":"ⵡⵍⴰⴷ ⴱⵔⴰⵀⵉⵎ","latitude":"36.2437886","longitude":"2.9350635"},
{"id":"2101","wilaya_id":"21","code":"2101","name_ar":"سكيكدة","name_en":"Skikda","name_ber":"ⵙⴽⵉⴽⴷⴰ","latitude":"36.7545115","longitude":"6.8856255"},
{"id":"2103","wilaya_id":"21","code":"2103","name_ar":"الحدائق","name_en":"El Hadaik","name_ber":"ⵍⴻⵃⴷⴰⵢⴻⵇ","latitude":"36.8252292","longitude":"6.8890251"},
{"id":"2104","wilaya_id":"21","code":"2104","name_ar":"عزابة","name_en":"Azzaba","name_ber":"ⵄⴻⵣⵣⴰⴱⴰ","latitude":"36.7409382","longitude":"7.1083637"},
{"id":"2108","wilaya_id":"21","code":"2108","name_ar":"بن عزوز","name_en":"Ben Azouz","name_ber":"ⴱⴻⵏ ⵄⴻⵣⵣⵓⵣ","latitude":"36.8600024","longitude":"7.2917539"},
{"id":"2110","wilaya_id":"21","code":"2110","name_ar":"القل","name_en":"Collo","name_ber":"ⵍⵇⴻⵍ","latitude":"37.0032596","longitude":"6.5520738"},
{"id":"2113","wilaya_id":"21","code":"2113","name_ar":"أولاد عطية","name_en":"Ouled Attia","name_ber":"ⵡⵍⴰⴷ ⵄⴰⵟⵉⵢⵢⴰ","latitude":"36.9949643","longitude":"6.3424894"},
{"id":"2115","wilaya_id":"21","code":"2115","name_ar":"الزيتونة","name_en":"Zitouna","name_ber":"ⵣⵣⵉⵜⵓⵏⴰ","latitude":"36.9888886","longitude":"6.4592299"},
{"id":"2116","wilaya_id":"21","code":"2116","name_ar":"الحروش","name_en":"El Harrouch","name_ber":"ⵍⵃⴻⵔⵔⵓⵛ","latitude":"36.6514052","longitude":"6.8360907"},
{"id":"2119","wilaya_id":"21","code":"2119","name_ar":"سيدي مزغيش","name_en":"Sidi Mezghiche","name_ber":"ⵙⵉⴷⵉ ⵎⴻⵣⵖⵉⵛ","latitude":"36.6782798","longitude":"6.7218765"},
{"id":"2123","wilaya_id":"21","code":"2123","name_ar":"رمضان جمال","name_en":"Ramdane Djamel","name_ber":"ⵔⴻⵎⴹⴰⵏ ⴵⴰⵎⴰⵍ","latitude":"36.7552810","longitude":"6.8931785"},
{"id":"2126","wilaya_id":"21","code":"2126","name_ar":"تمالوس","name_en":"Tamalous","name_ber":"ⵜⴰⵎⴰⵍⵓⵙ","latitude":"36.8361791","longitude":"6.6427952"},
{"id":"2127","wilaya_id":"21","code":"2127","name_ar":"عين قشرة","name_en":"Ain Kechra","name_ber":"ⵄⵉⵏ ⵇⴻⵛⵔⴰ","latitude":"36.8013180","longitude":"6.4610872"},
{"id":"2128","wilaya_id":"21","code":"2128","name_ar":"أم الطوب","name_en":"Oum Toub","name_ber":"ⵓⵎ ⵟⵟⵓⴱ","latitude":"36.6889594","longitude":"6.5758595"},
{"id":"2201","wilaya_id":"22","code":"2201","name_ar":"سيدي بلعباس","name_en":"Sidi Bel Abbès","name_ber":"ⵙⵉⴷⵉ ⴱⴻⵍ ⵄⴻⴱⴱⴰⵙ","latitude":"34.6822680","longitude":"-0.4357555"},
{"id":"2202","wilaya_id":"22","code":"2202","name_ar":"تسالة","name_en":"Tessala","name_ber":"ⵜⴻⵙⵙⴰⵍⴰ","latitude":"35.2434637","longitude":"-0.7725438"},
{"id":"2204","wilaya_id":"22","code":"2204","name_ar":"مصطفى بن ابراهيم","name_en":"Mostefa Ben Brahim","name_ber":"ⵎⵓⵙⵟⴰⴼⴰ ⴱⴻⵏ ⴱⵓⵍⵄⵉⴷ","latitude":"35.1912096","longitude":"-0.3582163"},
{"id":"2205","wilaya_id":"22","code":"2205","name_ar":"تلاغ","name_en":"Telagh","name_ber":"ⵜⴰⵍⴰⵖ","latitude":"34.7797863","longitude":"-0.5715147"},
{"id":"2208","wilaya_id":"22","code":"2208","name_ar":"سيدي علي بوسيدي","name_en":"Sidi Ali Boussidi District","name_ber":"ⵝⴰⴷⴰⵢⵔⴰ ⵏ ⵙⵉⴷⵉ ⵄⵍⵉ ⴱⵓⵙⵉⴷⵉ","latitude":"35.1020230","longitude":"-0.8842591"},
{"id":"2210","wilaya_id":"22","code":"2210","name_ar":"مرحوم","name_en":"Marhoum","name_ber":"ⵎⴻⵔⵃⵓⵎ","latitude":"34.4461692","longitude":"-0.1946242"},
{"id":"2214","wilaya_id":"22","code":"2214","name_ar":"سيدي لحسن","name_en":"Sidi Lahcene","name_ber":"ⵙⵉⴷⵉ ⵍⴻⵃⵙⴻⵏ","latitude":"35.1651869","longitude":"-0.6944968"},
{"id":"2217","wilaya_id":"22","code":"2217","name_ar":"تنيرة","name_en":"Tenira District","name_ber":"Daïra Tenira","latitude":"35.0165167","longitude":"-0.4368861"},
{"id":"2218","wilaya_id":"22","code":"2218","name_ar":"مولاي سليسن","name_en":"Moulay Slissen","name_ber":"ⵎⵓⵍⴰⵢ ⵙⵍⵉⵙⴻⵏ","latitude":"34.8220670","longitude":"-0.7637702"},
{"id":"2222","wilaya_id":"22","code":"2222","name_ar":"مرين","name_en":"Merine","name_ber":"ⵎⴻⵔⵉⵏ","latitude":"34.7804163","longitude":"-0.4511968"},
{"id":"2223","wilaya_id":"22","code":"2223","name_ar":"راس الماء","name_en":"Ras El Ma","name_ber":"ⵔⴰⵙ ⵍⵎⴰ","latitude":"34.5009186","longitude":"-0.7850292"},
{"id":"2228","wilaya_id":"22","code":"2228","name_ar":"عين البرد","name_en":"Aïn El Berd","name_ber":"ⵄⵉⵏ ⵍⴱⴻⵔⴷ","latitude":"35.3671349","longitude":"-0.5120201"},
{"id":"2229","wilaya_id":"22","code":"2229","name_ar":"سفيزف","name_en":"Sfisef","name_ber":"ⵙⴼⵉⵣⴻⴼ","latitude":"35.2355377","longitude":"-0.2426616"},
{"id":"2245","wilaya_id":"22","code":"2245","name_ar":"بن باديس","name_en":"Ben Badis District","name_ber":"ⵝⴰⴷⴰⵢⵔⴰ ⵏ ⴱⴻⵏ ⴱⴰⴷⵉⵙ","latitude":"34.9695291","longitude":"-0.8724313"},
{"id":"2246","wilaya_id":"22","code":"2246","name_ar":"سيدي علي بن يوب","name_en":"Sidi Ali Benyoub","name_ber":"ⵙⵉⴷⵉ ⵄⵍⵉ ⴱⴻⵏ ⵢⵓⴱ","latitude":"34.9468100","longitude":"-0.7195938"},
{"id":"2301","wilaya_id":"23","code":"2301","name_ar":"عنابة","name_en":"Annaba","name_ber":"ⵄⴻⵍⵍⴰⴲⴰ","latitude":"36.8982165","longitude":"7.7549272"},
{"id":"2302","wilaya_id":"23","code":"2302","name_ar":"برحال","name_en":"Berrahal District","name_ber":"ⵝⴰⴷⴰⵢⵔⴰ ⵏ ⴱⴻⵔⵔⴰⵃⴻⵍ","latitude":"36.8930255","longitude":"7.4790502"},
{"id":"2303","wilaya_id":"23","code":"2303","name_ar":"الحجار","name_en":"El Hadjar District","name_ber":"ⵝⴰⴷⴰⵢⵔⴰ ⵏ ⵍⵃⴻⴵⴵⴰⵔ","latitude":"36.7789306","longitude":"7.6811027"},
{"id":"2305","wilaya_id":"23","code":"2305","name_ar":"البوني","name_en":"El Bouni District","name_ber":"ⵝⴰⴷⴰⵢⵔⴰ ⵏ ⵍⴱⵓⵏⵉ","latitude":"36.8409039","longitude":"7.7474307"},
{"id":"2309","wilaya_id":"23","code":"2309","name_ar":"عين الباردة","name_en":"Ain Berda District","name_ber":"ⵝⴰⴷⴰⵢⵔⴰ ⵏ ⵝⴰⵍⴰ ⵝⴰⵙⴻⵎⵎⴰⵟ","latitude":"36.6973685","longitude":"7.5172870"},
{"id":"2310","wilaya_id":"23","code":"2310","name_ar":"شطايبي","name_en":"Chetaibi District","name_ber":"ⵝⴰⴷⴰⵢⵔⴰ ⵏ ⵛⴻⵜⵜⴰⵢⴱⵉ","latitude":"37.0119395","longitude":"7.4025879"},
{"id":"2401","wilaya_id":"24","code":"2401","name_ar":"قالمة","name_en":"Guelma","name_ber":"ⴳⴰⵍⵎⴰ","latitude":"36.3491635","longitude":"7.4094990"},
{"id":"2404","wilaya_id":"24","code":"2404","name_ar":"وادي الزناتي","name_en":"Oued Zenati","name_ber":"ⵡⴰⴷ ⵣⴻⵏⵏⴰⵜⵉ","latitude":"36.3130761","longitude":"7.1645280"},
{"id":"2413","wilaya_id":"24","code":"2413","name_ar":"عين مخلوف","name_en":"Ain Makhlouf","name_ber":"ⵄⵉⵏ ⵎⴻⵅⵍⵓⴼ","latitude":"36.2427266","longitude":"7.2491244"},
{"id":"2415","wilaya_id":"24","code":"2415","name_ar":"لخزارة","name_en":"Khezara","name_ber":"ⵍⴻⵅⵣⴰⵔⴰ","latitude":"36.3681295","longitude":"7.5278729"},
{"id":"2418","wilaya_id":"24","code":"2418","name_ar":"قلعة بوصبع","name_en":"Guelaat Bou Sbaa","name_ber":"ⴳⴻⵍⵄⴻⵜ ⴱⵓ ⵚⴱⴻⵄ","latitude":"36.5464868","longitude":"7.4738525"},
{"id":"2419","wilaya_id":"24","code":"2419","name_ar":"حمام دباغ","name_en":"Hammam Debagh","name_ber":"ⵃⴻⵎⵎⴰⵎ ⴷⴻⴱⴱⴰⵖ","latitude":"36.4602654","longitude":"7.2676947"},
{"id":"2422","wilaya_id":"24","code":"2422","name_ar":"حمام النبايل","name_en":"Hammam Nbail","name_ber":"ⵃⴻⵎⵎⴰⵎ ⵏⴱⴰⵢⴻⵍ","latitude":"36.3255156","longitude":"7.6403260"},
{"id":"2425","wilaya_id":"24","code":"2425","name_ar":"بوشقوف","name_en":"Boucheghouf","name_ber":"ⴱⵓ ⵛⴻⵇⵇⵓⴼ","latitude":"36.4704821","longitude":"7.7290561"},
{"id":"2426","wilaya_id":"24","code":"2426","name_ar":"هيليوبوليس","name_en":"Heliopolis","name_ber":"ⵀⵉⵍⵢⵓⴱⵓⵍⵉⵙ","latitude":"36.5306234","longitude":"7.4348224"},
{"id":"2427","wilaya_id":"24","code":"2427","name_ar":"عين حساينية","name_en":"Houari Boumediene","name_ber":"ⵀⴻⵡⵡⴰⵔⵉ ⴱⵓⵎⴻⴷⵢⴻⵏ","latitude":"36.4155048","longitude":"7.2870821"},
{"id":"2501","wilaya_id":"25","code":"2501","name_ar":"قسنطينة","name_en":"Constantine","name_ber":"ⵇⵙⴻⵟⵉⵏⴰ","latitude":"36.3645190","longitude":"6.6082600"},
{"id":"2502","wilaya_id":"25","code":"2502","name_ar":"حامة بوزيان","name_en":"Hamma Bouziane District","name_ber":"ⵝⴰⴷⴰⵢⵔⴰ ⵏ ⵃⴰⵎⴰ ⴱⵓⵣⵉⵢⵢⴰⵏ","latitude":"36.4465510","longitude":"6.6215440"},
{"id":"2504","wilaya_id":"25","code":"2504","name_ar":"زيغود يوسف","name_en":"Zighoud Youcef District","name_ber":"ⵝⴰⴷⴰⵢⵔⴰ ⵏ ⵣⵉⵖⵓⴷ ⵢⵓⵙⴻⴼ","latitude":"36.5290345","longitude":"6.6696930"},
{"id":"2506","wilaya_id":"25","code":"2506","name_ar":"الخروب","name_en":"El Khroub District","name_ber":"ⵝⴰⴷⴰⵢⵔⴰ ⵏ ⵍⴻⵅⵔⵓⴱ","latitude":"36.2546825","longitude":"6.6115435"},
{"id":"2507","wilaya_id":"25","code":"2507","name_ar":"عين عبيد","name_en":"Ain Abid District","name_ber":"ⵝⴰⴷⴰⵢⵔⴰ ⵏ ⵄⵉⵏ ⵄⴱⵉⴷ","latitude":"36.2956436","longitude":"6.9048084"},
{"id":"2512","wilaya_id":"25","code":"2512","name_ar":"ابن زياد","name_en":"Ibn Ziad District","name_ber":"ⵝⴰⴷⴰⵢⵔⴰ ⵏ ⴱⴻⵏ ⴱⴰⴷⵉⵙ","latitude":"36.4047075","longitude":"6.4396157"},
{"id":"2601","wilaya_id":"26","code":"2601","name_ar":"المدية","name_en":"Médéa","name_ber":"ⵎⴷⵉⵢⵢⴰ","latitude":"35.9752045","longitude":"3.0123504"},
{"id":"2602","wilaya_id":"26","code":"2602","name_ar":"وزرة","name_en":"Ouzera","name_ber":"ⵡⴻⵣⵔⴰ","latitude":"36.2526315","longitude":"2.8466043"},
{"id":"2604","wilaya_id":"26","code":"2604","name_ar":"عين بوسيف","name_en":"Aïn Boucif","name_ber":"ⵄⵉⵏ ⴱⵓⵙⵉⴼ","latitude":"35.8354145","longitude":"3.1577821"},
{"id":"2607","wilaya_id":"26","code":"2607","name_ar":"العمارية","name_en":"El Omaria","name_ber":"ⵍⵄⵓⵎⵎⴰⵔⵉⵢⴰ","latitude":"36.2671619","longitude":"3.0270877"},
{"id":"2609","wilaya_id":"26","code":"2609","name_ar":"القلب الكبير","name_en":"El Guelb Kebir","name_ber":"ⵍⴳⴻⵍⴱ ⵍⴻⴽⴱⵉⵔ","latitude":"36.2556406","longitude":"3.4168521"},
{"id":"2618","wilaya_id":"26","code":"2618","name_ar":"شلالة العذاورة","name_en":"Chelalat El Adhoura","name_ber":"ⵛⴻⵍⵍⴰⵍⴰⵜ ⵍⴻⵄⴷⵓⵔⴰ","latitude":"35.9396178","longitude":"3.4140092"},
{"id":"2626","wilaya_id":"26","code":"2626","name_ar":"سيدي نعمان","name_en":"Sidi Naamane","name_ber":"ⵙⵉⴷⵉ ⵏⴻⵄⵎⴰⵏ","latitude":"36.7586177","longitude":"3.9814233"},
{"id":"2632","wilaya_id":"26","code":"2632","name_ar":"عزيز","name_en":"Aziz","name_ber":"ⵄⴰⵣⵉⵣ","latitude":"35.8239347","longitude":"2.4517089"},
{"id":"2633","wilaya_id":"26","code":"2633","name_ar":"السواقي","name_en":"Souagui","name_ber":"ⵙⵡⴰⴳⵉ","latitude":"36.1255019","longitude":"3.2651010"},
{"id":"2635","wilaya_id":"26","code":"2635","name_ar":"قصر البخاري","name_en":"Ksar El Boukhari","name_ber":"ⵇⵚⴻⵔ ⵍⴱⵓⵅⴰⵔⵉ","latitude":"35.8758381","longitude":"2.7484133"},
{"id":"2636","wilaya_id":"26","code":"2636","name_ar":"العزيزية","name_en":"El Azizia","name_ber":"ⵍⴻⵄⵣⵉⵣⵉⵢⴰ","latitude":"36.2872185","longitude":"3.4945428"},
{"id":"2638","wilaya_id":"26","code":"2638","name_ar":"الشهبونية","name_en":"Chahbounia","name_ber":"ⵛⵛⴻⵀⴱⵓⵏⵉⵢⴰ","latitude":"35.5415407","longitude":"2.6037738"},
{"id":"2643","wilaya_id":"26","code":"2643","name_ar":"عوامري","name_en":"Ouamri","name_ber":"ⵡⴰⵎⵔⵉ","latitude":"36.2321878","longitude":"2.5656189"},
{"id":"2644","wilaya_id":"26","code":"2644","name_ar":"سي المحجوب","name_en":"Si Mahdjoub","name_ber":"ⵙⵉ ⵍⵎⴻⵃⴵⵓⴱ","latitude":"36.1613133","longitude":"2.7215517"},
{"id":"2646","wilaya_id":"26","code":"2646","name_ar":"بني سليمان","name_en":"Beni Slimane","name_ber":"ⴱⴻⵏⵉ ⵙⵍⵉⵎⴰⵏ","latitude":"36.2307230","longitude":"3.3104153"},
{"id":"2647","wilaya_id":"26","code":"2647","name_ar":"البرواقية","name_en":"Berrouaghia","name_ber":"ⴱⴻⵔⵡⴰⴳⵉⵢⴰ","latitude":"36.1352805","longitude":"2.9172738"},
{"id":"2648","wilaya_id":"26","code":"2648","name_ar":"سغوان","name_en":"Seghouane","name_ber":"ⵙⴻⵖⵡⴰⵏ","latitude":"36.0008943","longitude":"2.9051620"},
{"id":"2652","wilaya_id":"26","code":"2652","name_ar":"تابلاط","name_en":"Tablat","name_ber":"ⵜⴰⴱⵍⴰⵟ","latitude":"36.4127653","longitude":"3.3097893"},
{"id":"2658","wilaya_id":"26","code":"2658","name_ar":"أولاد عنتر","name_en":"Ouled Antar","name_ber":"ⵡⵍⴰⴷ ⵄⴻⵏⵟⴻⵔ","latitude":"35.9461818","longitude":"2.6009942"},
{"id":"2701","wilaya_id":"27","code":"2701","name_ar":"مستغانم","name_en":"Mostaganem","name_ber":"ⵎⵓⵙⵜⵖⴰⵏⴻⵎ","latitude":"36.0026915","longitude":"0.3686867"},
{"id":"2705","wilaya_id":"27","code":"2705","name_ar":"عين نويسي","name_en":"Aïn Nouissy District","name_ber":"daïra Aïn Nouissy","latitude":"35.7593033","longitude":"0.0198239"},
{"id":"2706","wilaya_id":"27","code":"2706","name_ar":"حاسي ماماش","name_en":"Hassi Mameche","name_ber":"ⵃⴰⵙⵉ ⵎⴰⵎⵎⴰⵛ","latitude":"35.8607135","longitude":"0.0734609"},
{"id":"2707","wilaya_id":"27","code":"2707","name_ar":"عين تادلس","name_en":"Ain Tedles","name_ber":"ⵄⵉⵏ ⵜⴰⴷⵍⴻⵙ","latitude":"35.9990969","longitude":"0.2948790"},
{"id":"2711","wilaya_id":"27","code":"2711","name_ar":"خير الدين","name_en":"Kheireddine","name_ber":"ⵅⵉⵔⴷⵉⵏ","latitude":"35.9811156","longitude":"0.1684521"},
{"id":"2712","wilaya_id":"27","code":"2712","name_ar":"سيدي علي","name_en":"Sidi Ali","name_ber":"Sidi Ali","latitude":"36.6171709","longitude":"5.5391438"},
{"id":"2716","wilaya_id":"27","code":"2716","name_ar":"سيدي لخضر","name_en":"Sidi Lakhdar","name_ber":"ⵙⵉⴷⵉ ⵍⴻⵅⴹⴻⵔ","latitude":"36.1643449","longitude":"0.4406587"},
{"id":"2717","wilaya_id":"27","code":"2717","name_ar":"عشعاشة","name_en":"Achaacha","name_ber":"ⵄⴻⵛⵄⴰⵛⴰ","latitude":"36.2445994","longitude":"0.6355803"},
{"id":"2719","wilaya_id":"27","code":"2719","name_ar":"بوقيراط","name_en":"Bouguirat","name_ber":"ⴱⵓⴳⵉⵔⴰⵟ","latitude":"35.7502319","longitude":"0.2566146"},
{"id":"2722","wilaya_id":"27","code":"2722","name_ar":"ماسرة","name_en":"Mesra","name_ber":"ⵎⴻⵙⵔⴰ","latitude":"35.8372794","longitude":"0.1693314"},
{"id":"2801","wilaya_id":"28","code":"2801","name_ar":"المسيلة","name_en":"M\\&amp;#039;Sila","name_ber":"ⵎⵙⵉⵍⴰ","latitude":"35.1300205","longitude":"4.2003107"},
{"id":"2803","wilaya_id":"28","code":"2803","name_ar":"حمام الضلعة","name_en":"Hammam Dhalaa","name_ber":"ⵃⴻⵎⵎⴰⵎ ⴹⴹⴰⵍⵄⴰ","latitude":"35.9280639","longitude":"4.3746370"},
{"id":"2804","wilaya_id":"28","code":"2804","name_ar":"أولاد دراج","name_en":"Ouled Derradj","name_ber":"ⵡⵍⴰⴷ ⴷⴻⵔⵔⴰⴵ","latitude":"35.6721703","longitude":"4.7876916"},
{"id":"2807","wilaya_id":"28","code":"2807","name_ar":"خبانة","name_en":"Khoubana","name_ber":"ⵅⴻⴱⴱⴰⵏⴰ","latitude":"35.3393724","longitude":"4.5684702"},
{"id":"2809","wilaya_id":"28","code":"2809","name_ar":"شلال","name_en":"Chellal","name_ber":"ⵛⴻⵍⵍⴰⵍⴰ","latitude":"35.5186792","longitude":"4.3860919"},
{"id":"2811","wilaya_id":"28","code":"2811","name_ar":"مقرة","name_en":"Magra","name_ber":"ⵎⴰⴳⵔⴰ","latitude":"35.6163647","longitude":"5.1014147"},
{"id":"2816","wilaya_id":"28","code":"2816","name_ar":"سيدي عيسى","name_en":"Sidi Aïssa","name_ber":"ⵙⵉⴷⵉ ⵄⵉⵙⴰ","latitude":"35.8838359","longitude":"3.7803723"},
{"id":"2817","wilaya_id":"28","code":"2817","name_ar":"عين الحجل","name_en":"Ain El Hadjel","name_ber":"ⵄⵉⵏ ⵍⴻⵃⴵⴻⵍ","latitude":"35.6179388","longitude":"3.8654197"},
{"id":"2820","wilaya_id":"28","code":"2820","name_ar":"بوسعادة","name_en":"Bou Saada","name_ber":"ⴱⵓⵙⵄⴰⴷⴰ","latitude":"35.2133123","longitude":"4.1809702"},
{"id":"2821","wilaya_id":"28","code":"2821","name_ar":"أولاد سيدي ابراهيم","name_en":"Ouled Sidi Brahim","name_ber":"ⵡⵍⴰⴷ ⵙⵉⴷⵉ ⴱⵔⴰⵀⵉⵎ","latitude":"35.3510379","longitude":"4.1387382"},
{"id":"2822","wilaya_id":"28","code":"2822","name_ar":"سيدي عامر","name_en":"Sidi Ameur","name_ber":"ⵙⵉⴷⵉ ⵄⴰⵎⴻⵔ","latitude":"35.3814589","longitude":"3.9068512"},
{"id":"2824","wilaya_id":"28","code":"2824","name_ar":"بن سرور","name_en":"Ben Srour","name_ber":"ⴱⴻⵏ ⵙⵔⵓⵔ","latitude":"34.9913450","longitude":"4.5550981"},
{"id":"2841","wilaya_id":"28","code":"2841","name_ar":"عين الملح","name_en":"Ain El Melh","name_ber":"ⵄⵉⵏ ⵍⵎⴻⵍⵃ","latitude":"34.8470491","longitude":"4.1634964"},
{"id":"2842","wilaya_id":"28","code":"2842","name_ar":"امجدل","name_en":"Daïra de Medjedel","name_ber":"دائرة مجدل","latitude":"35.1490553","longitude":"3.6753149"},
{"id":"2847","wilaya_id":"28","code":"2847","name_ar":"جبل مساعد","name_en":"Djebel Messaad","name_ber":"ⴵⴱⴻⵍ ⵎⴻⵙⵙⴰⵄⴷ","latitude":"34.9930304","longitude":"4.0907504"},
{"id":"2901","wilaya_id":"29","code":"2901","name_ar":"معسكر","name_en":"Mascara","name_ber":"ⵎⵄⴻⵙⴽⴻⵔ","latitude":"35.3978385","longitude":"0.2430195"},
{"id":"2902","wilaya_id":"29","code":"2902","name_ar":"بوحنيفية","name_en":"Bouhanifia","name_ber":"ⴱⵓⵃⴰⵏⵉⴼⵉⵢⴰ","latitude":"35.3151029","longitude":"-0.0486241"},
{"id":"2903","wilaya_id":"29","code":"2903","name_ar":"تيزي","name_en":"Tizi","name_ber":"ⵜⵉⵣⵉ","latitude":"35.3161396","longitude":"0.0739093"},
{"id":"2906","wilaya_id":"29","code":"2906","name_ar":"تيغنيف","name_en":"Tighennif District","name_ber":"ⵝⴰⴷⴰⵢⵔⴰ ⵏ ⵜⵉⵖⴻⵏⵏⵉⴼ","latitude":"35.3922379","longitude":"0.3416670"},
{"id":"2907","wilaya_id":"29","code":"2907","name_ar":"الحشم","name_en":"Hachem","name_ber":"ⵀⴰⵛⴻⵎ","latitude":"35.3754274","longitude":"0.4909404"},
{"id":"2910","wilaya_id":"29","code":"2910","name_ar":"وادي الأبطال","name_en":"Oued El Abtal","name_ber":"ⵡⴰⴷ ⴻⵍ ⴰⴱⵟⴰⵍ","latitude":"35.4552913","longitude":"0.6875170"},
{"id":"2912","wilaya_id":"29","code":"2912","name_ar":"غريس","name_en":"Ghriss","name_ber":"ⵖⵔⵉⵙ","latitude":"35.2481745","longitude":"0.1604511"},
{"id":"2917","wilaya_id":"29","code":"2917","name_ar":"البرج","name_en":"El Bordj","name_ber":"ⵍⴱⵓⵔⴵ","latitude":"35.5161559","longitude":"0.2975734"},
{"id":"2918","wilaya_id":"29","code":"2918","name_ar":"عين فكان","name_en":"Ain Fekan","name_ber":"ⵄⵉⵏ ⴼⴻⴽⴽⴰⵔ","latitude":"35.2246587","longitude":"-0.0052397"},
{"id":"2922","wilaya_id":"29","code":"2922","name_ar":"وادي التاغية","name_en":"Oued Taria","name_ber":"ⵡⴰⴷ ⵜⵜⴰⵖⵉⵢⴰ","latitude":"35.1178344","longitude":"0.0886967"},
{"id":"2923","wilaya_id":"29","code":"2923","name_ar":"عوف","name_en":"Aouf","name_ber":"ⵄⵓⴼ","latitude":"35.0971656","longitude":"0.3563773"},
{"id":"2924","wilaya_id":"29","code":"2924","name_ar":"عين فارس","name_en":"Aïn Fares","name_ber":"ⵄⵉⵏ ⴼⴰⵔⴻⵙ","latitude":"35.4813571","longitude":"0.2445300"},
{"id":"2926","wilaya_id":"29","code":"2926","name_ar":"سيق","name_en":"Sig","name_ber":"ⵙⵉⴳ","latitude":"35.5305119","longitude":"-0.1906822"},
{"id":"2927","wilaya_id":"29","code":"2927","name_ar":"عقاز","name_en":"Oggaz","name_ber":"ⵄⵓⴳⴳⴰⵔ","latitude":"35.5621748","longitude":"-0.2588196"},
{"id":"2930","wilaya_id":"29","code":"2930","name_ar":"زهانة","name_en":"Zahana","name_ber":"ⵣⴻⵀⵀⴰⵏⴰ","latitude":"35.5176160","longitude":"-0.4102250"},
{"id":"2931","wilaya_id":"29","code":"2931","name_ar":"المحمدية","name_en":"Mohammadia","name_ber":"ⵎⵓⵃⴻⵎⵎⴰⴷⵉⵢⴰ","latitude":"35.5892003","longitude":"0.0670398"},
{"id":"3001","wilaya_id":"30","code":"3001","name_ar":"ورقلة","name_en":"Ouargla","name_ber":"ⵡⴰⵔⴳⵍⴰ","latitude":"30.9980145","longitude":"6.7664536"},
{"id":"3003","wilaya_id":"30","code":"3003","name_ar":"انقوسة","name_en":"Daira N\\&amp;#039;Goussa","name_ber":"دائرة انقوسة","latitude":"32.1347902","longitude":"5.3152170"},
{"id":"3004","wilaya_id":"30","code":"3004","name_ar":"حاسي مسعود","name_en":"Hassi Messaoud","name_ber":"ⵃⴰⵙⵉ ⵎⴻⵙⵄⵓⴷ","latitude":"31.6957444","longitude":"6.0604297"},
{"id":"3011","wilaya_id":"30","code":"3011","name_ar":"سيدي خويلد","name_en":"Sidi Khouiled","name_ber":"ⵙⵉⴷⵉ ⵅⵡⵉⵍⴻⴷ","latitude":"31.9786887","longitude":"5.4190448"},
{"id":"3013","wilaya_id":"55","code":"3013","name_ar":"تقرت","name_en":"Touggourt","name_ber":"ⵜⵓⴳⵓⵔⵜ","latitude":"32.9825197","longitude":"6.2354432"},
{"id":"3014","wilaya_id":"55","code":"3014","name_ar":"الحجيرة","name_en":"El Hadjira","name_ber":"ⵍⴻⵃⴵⵉⵔⴰ","latitude":"32.6130464","longitude":"5.5152002"},
{"id":"3015","wilaya_id":"55","code":"3015","name_ar":"الطيبات","name_en":"Taibet","name_ber":"ⵟⵟⴰⵢⴱⴰⵜ","latitude":"33.0829494","longitude":"6.3998090"},
{"id":"3016","wilaya_id":"55","code":"3016","name_ar":"تماسين","name_en":"Tamacine","name_ber":"ⵜⴰⵎⴰⵙⵉⵏ","latitude":"33.0104035","longitude":"6.0126870"},
{"id":"3019","wilaya_id":"55","code":"3019","name_ar":"المقارين","name_en":"Magarine","name_ber":"ⵎⴻⴳⴳⴰⵔⵉⵏ","latitude":"33.1930214","longitude":"6.0932032"},
{"id":"3021","wilaya_id":"30","code":"3021","name_ar":"البرمة","name_en":"El Borma","name_ber":"ⵍⴱⵓⵔⵎⴰ","latitude":"31.5948858","longitude":"9.1635246"},
{"id":"3101","wilaya_id":"31","code":"3101","name_ar":"وهران","name_en":"Oran","name_ber":"ⵡⴻⵀⵔⴰⵏ","latitude":"35.7032751","longitude":"-0.6492976"},
{"id":"3102","wilaya_id":"31","code":"3102","name_ar":"قديل","name_en":"Qudayyil","name_ber":"ⴳⴻⴷⵢⴻⵍ","latitude":"35.7824840","longitude":"-0.4241977"},
{"id":"3103","wilaya_id":"31","code":"3103","name_ar":"بئر الجير","name_en":"Bir El Djir","name_ber":"ⴱⵉⵔ ⵍⴵⵉⵔ","latitude":"35.7198740","longitude":"-0.5675118"},
{"id":"3105","wilaya_id":"31","code":"3105","name_ar":"السانية","name_en":"Es Senia","name_ber":"ⵙⵙⴰⵏⵉⵢⴰ","latitude":"35.6500999","longitude":"-0.6241804"},
{"id":"3106","wilaya_id":"31","code":"3106","name_ar":"أرزيو","name_en":"Arzew","name_ber":"ⴰⵔⴻⵣⵢⵓ","latitude":"35.8563480","longitude":"-0.3136780"},
{"id":"3107","wilaya_id":"31","code":"3107","name_ar":"بطيوة","name_en":"Bethioua","name_ber":"ⴱⴻⵟⵟⵉⵡⴰ","latitude":"35.8058370","longitude":"-0.2679360"},
{"id":"3109","wilaya_id":"31","code":"3109","name_ar":"عين الترك","name_en":"Ain Turk","name_ber":"ⵄⵉⵏ ⵟⵟⵓⵔⴽ","latitude":"36.3932061","longitude":"3.8246043"},
{"id":"3111","wilaya_id":"31","code":"3111","name_ar":"وادي تليلات","name_en":"Oued Tlelat","name_ber":"ⵡⴰⴷ ⵜⵍⵉⵍⴰⵜ","latitude":"35.5519239","longitude":"-0.4522604"},
{"id":"3124","wilaya_id":"31","code":"3124","name_ar":"بوتليليس","name_en":"Boutlelis","name_ber":"ⴱⵓⵜⵍⵉⵍⵉⵙ","latitude":"35.5729399","longitude":"-0.8998452"},
{"id":"3201","wilaya_id":"32","code":"3201","name_ar":"البيض","name_en":"El Bayadh","name_ber":"ⵍⴱⴰⵢⴻⴹ","latitude":"32.5703030","longitude":"1.1259581"},
{"id":"3202","wilaya_id":"32","code":"3202","name_ar":"رقاصة","name_en":"Rogassa","name_ber":"ⵔⵓⴳⴰⵙⴰ","latitude":"34.0182474","longitude":"0.9262211"},
{"id":"3203","wilaya_id":"32","code":"3203","name_ar":"بريزينة","name_en":"Berizina","name_ber":"بربرينا","latitude":"33.0053275","longitude":"1.2465973"},
{"id":"3204","wilaya_id":"32","code":"3204","name_ar":"بوعلام","name_en":"Boualem","name_ber":"ⴱⵓⵄⵍⴰⵎ","latitude":"33.7281417","longitude":"1.5345064"},
{"id":"3205","wilaya_id":"32","code":"3205","name_ar":"الأبيض سيدي الشيخ","name_en":"El Abiodh Sidi Cheikh","name_ber":"ⵍⴻⴱⵢⴻⴹ ⵙⵉⴷⵉ ⵛⵛⵉⵅ","latitude":"32.8964840","longitude":"0.5463928"},
{"id":"3206","wilaya_id":"32","code":"3206","name_ar":"بوقطب","name_en":"Bougtob","name_ber":"ⴱⵓⴳⵟⵓⴱ","latitude":"34.0405202","longitude":"0.0870670"},
{"id":"3207","wilaya_id":"32","code":"3207","name_ar":"بوسمغون","name_en":"Boussemghoun","name_ber":"ⴱⵓⵙⴻⵎⵖⵓⵏ","latitude":"32.8678479","longitude":"0.0232401"},
{"id":"3208","wilaya_id":"32","code":"3208","name_ar":"شلالة","name_en":"Chellala","name_ber":"ⵛⴻⵍⵍⴰⵍⴰ","latitude":"33.0170236","longitude":"0.0896971"},
{"id":"3301","wilaya_id":"33","code":"3301","name_ar":"إيليزي","name_en":"Illizi","name_ber":"ⵉⵍⵍⵉⵣⵉ","latitude":"27.8528505","longitude":"7.8189636"},
{"id":"3302","wilaya_id":"56","code":"3302","name_ar":"جانت","name_en":"Djanet","name_ber":"ⵊⴰⵏⴻⵜ","latitude":"24.0715210","longitude":"9.6155847"},
{"id":"3306","wilaya_id":"33","code":"3306","name_ar":"إن أمناس","name_en":"In Amenas","name_ber":"ⵄⵉⵍ ⴰⵎⵉⵏⴰⵚ","latitude":"28.0386648","longitude":"9.5761505"},
{"id":"3401","wilaya_id":"34","code":"3401","name_ar":"برج بوعريريج","name_en":"Bordj Bou Arreridj","name_ber":"ⴱⵓⵔⴵ ⴱⵓ ⵄⵔⵉⵔⵉⴵ","latitude":"36.0955060","longitude":"4.6611002"},
{"id":"3402","wilaya_id":"34","code":"3402","name_ar":"رأس الوادي","name_en":"Ras El Oued","name_ber":"ⵔⴰⵙ ⵍⵡⴰⴷ","latitude":"35.9445677","longitude":"5.0319396"},
{"id":"3403","wilaya_id":"34","code":"3403","name_ar":"برج زمورة","name_en":"Bordj Zemoura","name_ber":"ⴱⵓⵔⴵ ⵣⴻⵎⵎⵓⵔⴰ","latitude":"36.2677309","longitude":"4.8411698"},
{"id":"3404","wilaya_id":"34","code":"3404","name_ar":"المنصورة","name_en":"Mansourah","name_ber":"ⵎⴻⵏⵙⵓⵔⴰ","latitude":"34.8699786","longitude":"-1.3561512"},
{"id":"3408","wilaya_id":"34","code":"3408","name_ar":"عين تاغروت","name_en":"Aïn Taghrout","name_ber":"ⵄⵉⵏ ⵜⴰⵖⵔⵓⵜ","latitude":"36.1314213","longitude":"5.0738040"},
{"id":"3409","wilaya_id":"34","code":"3409","name_ar":"برج الغدير","name_en":"Bordj Ghedir","name_ber":"ⴱⵓⵔⴵ ⵍⴻⵖⴷⵉⵔ","latitude":"35.8991893","longitude":"4.8991820"},
{"id":"3411","wilaya_id":"34","code":"3411","name_ar":"الحمادية","name_en":"El Hammadia","name_ber":"ⵍⵃⴻⵎⵎⴰⴷⵉⵢⴰ","latitude":"35.9782040","longitude":"4.7474799"},
{"id":"3413","wilaya_id":"34","code":"3413","name_ar":"مجانة","name_en":"Medjana","name_ber":"ⵎⴻⴵⴵⴰⵏⴰ","latitude":"36.1311024","longitude":"4.6691740"},
{"id":"3415","wilaya_id":"34","code":"3415","name_ar":"جعافرة","name_en":"Djaafra","name_ber":"ⴵⵄⴼⵕⴰ","latitude":"36.2922781","longitude":"4.6628724"},
{"id":"3431","wilaya_id":"34","code":"3431","name_ar":"بئر قاصد علي","name_en":"Bir Kasdali","name_ber":"ⴱⵉⵔ ⵇⴰⵙⴷⵉ ⵄⵍⵉ","latitude":"36.1459099","longitude":"5.0251351"},
{"id":"3501","wilaya_id":"35","code":"3501","name_ar":"بومرداس","name_en":"Boumerdès","name_ber":"ⴱⵓⵎⴻⵔⴷⴰⵙ","latitude":"36.7358032","longitude":"3.6163046"},
{"id":"3502","wilaya_id":"35","code":"3502","name_ar":"بودواو","name_en":"Boudouaou","name_ber":"ⴱⵓⴷⵡⴰⵡ","latitude":"36.7272030","longitude":"3.4083820"},
{"id":"3504","wilaya_id":"35","code":"3504","name_ar":"برج منايل","name_en":"Bordj Menaiel","name_ber":"ⴱⵓⵔⴵ ⵎⵏⴰⵢⴻⵍ","latitude":"36.7432364","longitude":"3.7175665"},
{"id":"3505","wilaya_id":"35","code":"3505","name_ar":"بغلية","name_en":"Baghlia","name_ber":"ⵍⴻⵄⵣⵉⴱ ⵏ ⵛⵛⵉⵅ","latitude":"36.7959552","longitude":"3.8675211"},
{"id":"3507","wilaya_id":"35","code":"3507","name_ar":"الناصرية","name_en":"Naciria","name_ber":"ⵏⵏⴰⵙⵉⵔⵉⵢⴰ","latitude":"36.7471933","longitude":"3.8368580"},
{"id":"3509","wilaya_id":"35","code":"3509","name_ar":"يسر","name_en":"Isser","name_ber":"ⵉⵙⴻⵔ","latitude":"36.6935557","longitude":"3.6915459"},
{"id":"3514","wilaya_id":"35","code":"3514","name_ar":"الثنية","name_en":"Thenia","name_ber":"ⵜⵏⵉⵢⴰ","latitude":"36.7249860","longitude":"3.5569350"},
{"id":"3523","wilaya_id":"35","code":"3523","name_ar":"دلس","name_en":"Dellys","name_ber":"ⴷⴻⵍⵍⴻⵙ","latitude":"36.9157980","longitude":"3.9131040"},
{"id":"3531","wilaya_id":"35","code":"3531","name_ar":"خميس الخشنة","name_en":"Khemis El Khechna","name_ber":"ⵅⵎⵉⵙ ⵍⵅⴻⵛⵏⴰ","latitude":"36.6505384","longitude":"3.3317211"},
{"id":"3601","wilaya_id":"36","code":"3601","name_ar":"الطارف","name_en":"El Tarf","name_ber":"ⵟⵟⴰⵔⴻⴼ","latitude":"36.6713563","longitude":"8.0701340"},
{"id":"3602","wilaya_id":"36","code":"3602","name_ar":"بوحجار","name_en":"Bouhadjar","name_ber":"ⴱⵓⵃⴻⴵⴵⴰⵔ","latitude":"36.5034174","longitude":"8.1060862"},
{"id":"3603","wilaya_id":"36","code":"3603","name_ar":"بن مهيدي","name_en":"Ben M\\&amp;#039;Hidi","name_ber":"ⴱⴻⵏ ⵎⵀⵉⴷⵉ","latitude":"36.7704579","longitude":"7.9053142"},
{"id":"3605","wilaya_id":"36","code":"3605","name_ar":"القالة","name_en":"El Kala","name_ber":"ⵍⵇⴰⵍⴰ","latitude":"36.8953504","longitude":"8.4420993"},
{"id":"3608","wilaya_id":"36","code":"3608","name_ar":"بوثلجة","name_en":"Bouteldja","name_ber":"ⴱⵓⵜⴻⵍⴵⴰ","latitude":"36.7855823","longitude":"8.1990268"},
{"id":"3613","wilaya_id":"36","code":"3613","name_ar":"الذرعان","name_en":"Drean District","name_ber":"ⵝⴰⴷⴰⵢⵔⴰ ⵏ ⴷⴷⴻⵔⵄⴰⵏ","latitude":"36.6551185","longitude":"7.8219656"},
{"id":"3616","wilaya_id":"36","code":"3616","name_ar":"البسباس","name_en":"Besbes District","name_ber":"ⵝⴰⴷⴰⵢⵔⴰ ⵏ ⵍⴱⴻⵙⴱⴰⵙ","latitude":"36.6765165","longitude":"7.9711008"},
{"id":"3701","wilaya_id":"37","code":"3701","name_ar":"تندوف","name_en":"Tinduf","name_ber":"ⵜⵉⵏⴷⵓⴼ","latitude":"27.5439070","longitude":"-6.2400539"},
{"id":"3801","wilaya_id":"38","code":"3801","name_ar":"تيسمسيلت","name_en":"Tissemsilt","name_ber":"ⵜⵉⵙⴻⵎⵙⵉⵍⵜ","latitude":"35.7858975","longitude":"1.8340957"},
{"id":"3802","wilaya_id":"38","code":"3802","name_ar":"برج بونعامة","name_en":"Bordj Bounaama","name_ber":"ⴱⵓⵔⴵ ⴱⵓⵏⵄⴰⵎⴰ","latitude":"35.8505025","longitude":"1.6170851"},
{"id":"3803","wilaya_id":"38","code":"3803","name_ar":"ثنية الاحد","name_en":"Theniet El Had","name_ber":"ⵜⵏⵉⵢⴻⵜ ⵍⵃⴻⴷ","latitude":"35.8739691","longitude":"2.0240828"},
{"id":"3804","wilaya_id":"38","code":"3804","name_ar":"الأزهرية","name_en":"Lazharia","name_ber":"ⵍⴰⵣⵀⴰⵔⵉⵢⴰ","latitude":"35.9352724","longitude":"1.5605654"},
{"id":"3806","wilaya_id":"38","code":"3806","name_ar":"لرجام","name_en":"Lardjem","name_ber":"ⵍⴻⵔⴵⴰⵎ","latitude":"35.7480295","longitude":"1.5480772"},
{"id":"3809","wilaya_id":"38","code":"3809","name_ar":"برج الأمير عبد القادر","name_en":"Bordj El Emir Abdelkader","name_ber":"ⵄⴻⴱⴷⴻⵍⵇⴰⴷⴻⵔ","latitude":"35.8222005","longitude":"2.2369200"},
{"id":"3811","wilaya_id":"38","code":"3811","name_ar":"خميستي","name_en":"Khemisti","name_ber":"ⵅⵎⵉⵙⵜⵉ","latitude":"36.6253870","longitude":"2.6797524"},
{"id":"3813","wilaya_id":"38","code":"3813","name_ar":"عماري","name_en":"عماری","name_ber":"ⵎⴻⵙⵙⵓⴽⴻⵜ","latitude":"35.6145964","longitude":"1.6524176"},
{"id":"3901","wilaya_id":"39","code":"3901","name_ar":"الوادي","name_en":"El Oued","name_ber":"ⵍⵡⴰⴷ","latitude":"33.2154410","longitude":"7.1553214"},
{"id":"3902","wilaya_id":"39","code":"3902","name_ar":"الرباح","name_en":"Robbah","name_ber":"ⵔⵔⵓⴱⴰⵃ","latitude":"33.2894337","longitude":"6.9040129"},
{"id":"3904","wilaya_id":"39","code":"3904","name_ar":"البياضة","name_en":"Bayadha","name_ber":"ⴱⴻⵢⴰⴹⴰ","latitude":"33.3278311","longitude":"6.8885733"},
{"id":"3906","wilaya_id":"39","code":"3906","name_ar":"قمار","name_en":"Guemar","name_ber":"ⴳⴻⵎⵎⴰⵔ","latitude":"33.4916197","longitude":"6.7977914"},
{"id":"3908","wilaya_id":"39","code":"3908","name_ar":"الرقيبة","name_en":"Reguiba","name_ber":"ⵔⴻⴳⵉⴱⴰ","latitude":"33.5653009","longitude":"6.7114196"},
{"id":"3911","wilaya_id":"39","code":"3911","name_ar":"الدبيلة","name_en":"Debila","name_ber":"ⴷⴻⴱⵉⵍⴰ","latitude":"33.5059503","longitude":"6.9376019"},
{"id":"3913","wilaya_id":"39","code":"3913","name_ar":"حاسي خليفة","name_en":"Hassi Khelifa","name_ber":"ⵃⴰⵙⵉ ⵅⵍⵉⴼⴰ","latitude":"33.5630338","longitude":"6.9953023"},
{"id":"3914","wilaya_id":"39","code":"3914","name_ar":"الطالب العربي","name_en":"طالب العربي","name_ber":"طالب العربي","latitude":"33.7281020","longitude":"7.5112299"},
{"id":"3918","wilaya_id":"39","code":"3918","name_ar":"المقرن","name_en":"Magrane","name_ber":"ⵎⴰⴳⵔⴻⵏ","latitude":"33.5625599","longitude":"6.9309390"},
{"id":"3926","wilaya_id":"39","code":"3926","name_ar":"اميه وانسة","name_en":"Mih Ouensa","name_ber":"ⴰⵎⵉⵀ ⵓⵏⵙⴰ","latitude":"33.1995461","longitude":"6.7096899"},
{"id":"3927","wilaya_id":"57","code":"3927","name_ar":"المغير","name_en":"El M\\&amp;#039;Ghair","name_ber":"ⵍⴻⵎⵖⵉⵔ","latitude":"33.9580700","longitude":"5.7011262"},
{"id":"3928","wilaya_id":"57","code":"3928","name_ar":"جامعة","name_en":"Djamaa","name_ber":"ⴵⴻⵎⵄⴰ","latitude":"33.5304325","longitude":"5.9892386"},
{"id":"4001","wilaya_id":"40","code":"4001","name_ar":"خنشلة","name_en":"Khenchela","name_ber":"ⵅⴻⵏⵛⵍⴰ","latitude":"34.9133455","longitude":"6.9059431"},
{"id":"4003","wilaya_id":"40","code":"4003","name_ar":"قايس","name_en":"Kais","name_ber":"ⵇⴰⵢⴻⵙ","latitude":"35.4956337","longitude":"6.9235555"},
{"id":"4005","wilaya_id":"40","code":"4005","name_ar":"الحامة","name_en":"Hamma","name_ber":"ⵍⵃⴰⵎⵎⴰ","latitude":"35.6845243","longitude":"5.3862787"},
{"id":"4006","wilaya_id":"40","code":"4006","name_ar":"عين الطويلة","name_en":"Ain Touila","name_ber":"ⵄⵉⵏ ⵟⵡⵉⵍⴰ","latitude":"35.4422881","longitude":"7.4651870"},
{"id":"4008","wilaya_id":"40","code":"4008","name_ar":"بوحمامة","name_en":"Bouhmama","name_ber":"ⴱⵓⵃⵎⴰⵎⴰ","latitude":"35.3188013","longitude":"6.7466351"},
{"id":"4011","wilaya_id":"40","code":"4011","name_ar":"ششار","name_en":"Chechar","name_ber":"ⵛⴻⵛⵛⴰⵔ","latitude":"35.0383313","longitude":"7.0042609"},
{"id":"4013","wilaya_id":"40","code":"4013","name_ar":"بابار","name_en":"Babar","name_ber":"ⴱⴰⴱⴰⵔ","latitude":"35.1688559","longitude":"7.1054786"},
{"id":"4016","wilaya_id":"40","code":"4016","name_ar":"أولاد رشاش","name_en":"Ouled Rechache","name_ber":"ⵡⵍⴰⴷ ⵔⴻⵛⵛⴰⵛ","latitude":"35.2972988","longitude":"7.3548369"},
{"id":"4101","wilaya_id":"41","code":"4101","name_ar":"سوق أهراس","name_en":"Souk Ahras","name_ber":"ⵙⵓⵇⴻⵀⵔⴰⵙ","latitude":"36.1378681","longitude":"7.8262426"},
{"id":"4102","wilaya_id":"41","code":"4102","name_ar":"سدراتة","name_en":"Sedrata","name_ber":"ⵙⴻⴷⵔⴰⵜⴰ","latitude":"36.1356466","longitude":"7.5341200"},
{"id":"4104","wilaya_id":"41","code":"4104","name_ar":"المشروحة","name_en":"Mechroha District","name_ber":"ⵎⴻⵛⵔⵓⵅⴰ","latitude":"36.3348865","longitude":"7.9015494"},
{"id":"4105","wilaya_id":"41","code":"4105","name_ar":"أولاد إدريس","name_en":"Ouled Driss","name_ber":"ⵡⵍⴰⴷ ⴷⵔⵉⵙ","latitude":"36.3574912","longitude":"8.0255425"},
{"id":"4108","wilaya_id":"41","code":"4108","name_ar":"تاورة","name_en":"Taoura","name_ber":"ⵜⴰⵡⵔⴰ","latitude":"36.1670610","longitude":"8.0420390"},
{"id":"4110","wilaya_id":"41","code":"4110","name_ar":"الحدادة","name_en":"Heddada","name_ber":"ⵃⴻⴷⴷⴰⴷⴰ","latitude":"36.2306963","longitude":"8.3377472"},
{"id":"4112","wilaya_id":"41","code":"4112","name_ar":"المراهنة","name_en":"Merahna","name_ber":"ⵎⵔⴰⵀⵏⴰ","latitude":"36.1978548","longitude":"8.1556144"},
{"id":"4114","wilaya_id":"41","code":"4114","name_ar":"بئر بوحوش","name_en":"Bir Bouhouche","name_ber":"ⴱⵉⵔ ⴱⵓⵃⵓⵛ","latitude":"36.0142141","longitude":"7.4290603"},
{"id":"4115","wilaya_id":"41","code":"4115","name_ar":"مداوروش","name_en":"M\\&amp;#039;daourouch","name_ber":"ⵎⴷⴰⵡⵔⵓⵛ","latitude":"36.0773091","longitude":"7.8212383"},
{"id":"4116","wilaya_id":"41","code":"4116","name_ar":"أم العظايم","name_en":"Oum El Adhaim","name_ber":"ⵓⵎ ⵍⴻⵄⴹⴰⵢⴻⵎ","latitude":"36.0282758","longitude":"7.6040482"},
{"id":"4201","wilaya_id":"42","code":"4201","name_ar":"تيبازة","name_en":"Tipaza","name_ber":"ⵜⵉⵒⴰⵣⴰ","latitude":"36.5272742","longitude":"2.1683687"},
{"id":"4208","wilaya_id":"42","code":"4208","name_ar":"حجوط","name_en":"Hadjout","name_ber":"ⵃⴻⴵⴵⵓⵟ","latitude":"36.5121198","longitude":"2.4142888"},
{"id":"4209","wilaya_id":"42","code":"4209","name_ar":"سيدي أعمر","name_en":"Sidi Amar","name_ber":"Sidi Amar سيدي أعمر","latitude":"36.1338188","longitude":"4.1590369"},
{"id":"4210","wilaya_id":"42","code":"4210","name_ar":"قوراية","name_en":"Gouraya","name_ber":"ⴳⵓⵔⴰⵢⴰ","latitude":"36.5718933","longitude":"1.9059603"},
{"id":"4214","wilaya_id":"42","code":"4214","name_ar":"شرشال","name_en":"Cherchell","name_ber":"ⵛⴻⵔⵛⴰⵍ","latitude":"36.6075021","longitude":"2.1901982"},
{"id":"4215","wilaya_id":"42","code":"4215","name_ar":"الداموس","name_en":"Damous","name_ber":"ⴷⴷⴰⵎⵓⵙ","latitude":"36.5487451","longitude":"1.7055420"},
{"id":"4217","wilaya_id":"42","code":"4217","name_ar":"فوكة","name_en":"Fouka","name_ber":"ⴼⵓⴽⴰ","latitude":"36.6615638","longitude":"2.7421170"},
{"id":"4218","wilaya_id":"42","code":"4218","name_ar":"بواسماعيل","name_en":"Post office","name_ber":"Bureau de poste de Bou Ismaïl","latitude":"36.6407081","longitude":"2.7039135"},
{"id":"4219","wilaya_id":"42","code":"4219","name_ar":"أحمر العين","name_en":"Ahmer El Ain","name_ber":"ⵃⵎⴻⵔ ⵍⵄⵉⵏ","latitude":"36.4773708","longitude":"2.5646996"},
{"id":"4224","wilaya_id":"42","code":"4224","name_ar":"القليعة","name_en":"Kolea","name_ber":"ⵍⴻⵇⵍⵉⵄⴰ","latitude":"36.6373657","longitude":"2.7691260"},
{"id":"4301","wilaya_id":"43","code":"4301","name_ar":"ميلة","name_en":"Mila","name_ber":"ⵎⵉⵍⴰ","latitude":"36.2502135","longitude":"6.1652163"},
{"id":"4302","wilaya_id":"43","code":"4302","name_ar":"فرجيوة","name_en":"Ferdjioua","name_ber":"ⴼⴻⵔⴵⵉⵡⴰ","latitude":"36.4073812","longitude":"5.9419603"},
{"id":"4303","wilaya_id":"43","code":"4303","name_ar":"شلغوم العيد","name_en":"Chelghoum Laïd","name_ber":"ⵛⴻⵍⵖⵓⵎ ⵍⵄⵉⴷ","latitude":"36.1605629","longitude":"6.1673286"},
{"id":"4306","wilaya_id":"43","code":"4306","name_ar":"التلاغمة","name_en":"Teleghma","name_ber":"ⵜⵍⴰⵖⵎⴰ","latitude":"36.1180204","longitude":"6.3581086"},
{"id":"4308","wilaya_id":"43","code":"4308","name_ar":"تاجنانت","name_en":"Tadjenanet","name_ber":"ⵜⴰⵊⵏⴰⵏⵜ","latitude":"36.1192994","longitude":"5.9857948"},
{"id":"4310","wilaya_id":"43","code":"4310","name_ar":"وادي النجاء","name_en":"Oued Endja","name_ber":"ⵡⴰⴷ ⵏⴵⴰ","latitude":"36.4296241","longitude":"6.1218697"},
{"id":"4314","wilaya_id":"43","code":"4314","name_ar":"بوحاتم","name_en":"Bouhatem","name_ber":"ⴱⵓⵃⴰⵜⴻⵎ","latitude":"36.3043191","longitude":"6.0120695"},
{"id":"4315","wilaya_id":"43","code":"4315","name_ar":"الرواشد","name_en":"Rouached","name_ber":"ⵔⵡⴰⵛⴻⴷ","latitude":"36.4581588","longitude":"6.0391589"},
{"id":"4317","wilaya_id":"43","code":"4317","name_ar":"القرارم قوقة","name_en":"Grarem Gouga","name_ber":"ⴳⵔⴰⵔⴻⵎ ⴳⵓⴳⴰ","latitude":"36.5152648","longitude":"6.3261322"},
{"id":"4318","wilaya_id":"43","code":"4318","name_ar":"سيدي مروان","name_en":"Sidi Merouane","name_ber":"Sidi Merouane سيدي مروان","latitude":"36.5396818","longitude":"1.3400311"},
{"id":"4319","wilaya_id":"43","code":"4319","name_ar":"تسدان حدادة","name_en":"Tassadane Haddada","name_ber":"ⵜⴰⵙⴰⴷⴰⵏ ⵃⴻⴷⴷⴰⴷⴰ","latitude":"36.5016155","longitude":"5.8787288"},
{"id":"4323","wilaya_id":"43","code":"4323","name_ar":"ترعي باينان","name_en":"Terrai Bainen","name_ber":"ⵜⴻⵔⵄⵉ ⴱⴰⵢⵏⴰⵏ","latitude":"36.5499440","longitude":"6.1384689"},
{"id":"4330","wilaya_id":"43","code":"4330","name_ar":"عين البيضاء أحريش","name_en":"Mosquée","name_ber":"مسجد عين البيضاء احريش","latitude":"36.3929862","longitude":"5.8916519"},
{"id":"4401","wilaya_id":"44","code":"4401","name_ar":"عين الدفلى","name_en":"Aïn Defla","name_ber":"ⵄⵉⵏ ⴷⴻⴼⵍⴰ","latitude":"36.1586843","longitude":"2.0842817"},
{"id":"4402","wilaya_id":"44","code":"4402","name_ar":"مليانة","name_en":"Miliana","name_ber":"ⵎⴻⵍⵢⴰⵏⴰ","latitude":"36.3047698","longitude":"2.2268210"},
{"id":"4403","wilaya_id":"44","code":"4403","name_ar":"بومدفع","name_en":"Boumedfaa","name_ber":"ⴱⵓⵎⴻⴷⴼⴻⵄ","latitude":"36.3700317","longitude":"2.4732963"},
{"id":"4404","wilaya_id":"44","code":"4404","name_ar":"خميس","name_en":"Khemis","name_ber":"Khemis","latitude":"34.6422118","longitude":"-1.5614447"},
{"id":"4405","wilaya_id":"44","code":"4405","name_ar":"حمام ريغة","name_en":"Hammam Righa","name_ber":"ⵃⴻⵎⵎⴰⵎ ⵔⵉⵖⴰ","latitude":"36.3827173","longitude":"2.4009305"},
{"id":"4407","wilaya_id":"44","code":"4407","name_ar":"جليدة","name_en":"Djelida","name_ber":"ⴵⴻⵍⵍⵉⴷⴰ","latitude":"36.2027341","longitude":"2.0795157"},
{"id":"4408","wilaya_id":"44","code":"4408","name_ar":"العامرة","name_en":"El Amra","name_ber":"ⵍⵄⴰⵎⵔⴰ","latitude":"36.3050171","longitude":"1.8482739"},
{"id":"4410","wilaya_id":"44","code":"4410","name_ar":"العطاف","name_en":"El Attaf","name_ber":"ⵍⵄⴻⵟⵟⴰⴼ","latitude":"36.2244328","longitude":"1.6725159"},
{"id":"4411","wilaya_id":"44","code":"4411","name_ar":"العبادية","name_en":"El Abadia","name_ber":"ⵍⵄⴻⴱⴱⴰⴷⵉⵢⴰ","latitude":"36.2750279","longitude":"1.6854432"},
{"id":"4412","wilaya_id":"44","code":"4412","name_ar":"جندل","name_en":"Djendel","name_ber":"ⴵⴻⵏⴷⴻⵍ","latitude":"36.2192263","longitude":"2.4153796"},
{"id":"4414","wilaya_id":"44","code":"4414","name_ar":"عين الاشياخ","name_en":"Ain Lechiakh","name_ber":"ⵄⵉⵏ ⵍⴻⵛⵢⴰⵅ","latitude":"36.1220983","longitude":"2.4054963"},
{"id":"4416","wilaya_id":"44","code":"4416","name_ar":"الروينة","name_en":"Rouina","name_ber":"ⵔⵡⵉⵏⴰ","latitude":"36.2448216","longitude":"1.8055909"},
{"id":"4422","wilaya_id":"44","code":"4422","name_ar":"برج الأمير خالد","name_en":"Bordj Emir Khaled","name_ber":"ⴱⵓⵔⴵ ⵍⴰⵎⵉⵔ ⵅⴰⵍⴻⴷ","latitude":"36.1200332","longitude":"2.2045088"},
{"id":"4431","wilaya_id":"44","code":"4431","name_ar":"بطحية","name_en":"Bathia","name_ber":"ⴱⴻⵟⵃⵉⵢⴰ","latitude":"35.9159891","longitude":"1.8400969"},
{"id":"4501","wilaya_id":"45","code":"4501","name_ar":"النعامة","name_en":"Naâma","name_ber":"ⵏⵄⴰⵎⴰ","latitude":"33.2336851","longitude":"-0.8151958"},
{"id":"4502","wilaya_id":"45","code":"4502","name_ar":"المشرية","name_en":"Mecheria","name_ber":"ⵎⴻⵛⵔⵉⵢⴰ","latitude":"33.5428415","longitude":"-0.2750524"},
{"id":"4503","wilaya_id":"45","code":"4503","name_ar":"عين الصفراء","name_en":"Ain Sefra","name_ber":"ⵄⵉⵏ ⵚⴻⴼⵔⴰ","latitude":"32.7568151","longitude":"-0.5778590"},
{"id":"4505","wilaya_id":"45","code":"4505","name_ar":"سفيسيفة","name_en":"Sfisifa","name_ber":"Sfisifa","latitude":"36.5693493","longitude":"6.1909773"},
{"id":"4506","wilaya_id":"45","code":"4506","name_ar":"مغرار","name_en":"Moghrar","name_ber":"ⵎⵓⵖⴰⵔ","latitude":"32.5149231","longitude":"-0.5761147"},
{"id":"4507","wilaya_id":"45","code":"4507","name_ar":"عسلة","name_en":"Assela","name_ber":"ⵄⴻⵙⵍⴰ","latitude":"32.9999816","longitude":"-0.0748682"},
{"id":"4510","wilaya_id":"45","code":"4510","name_ar":"مكمن بن عمار","name_en":"Makman Ben Ammar","name_ber":"ⵎⴻⴽⵎⴻⵏ ⴱⴻⵏ ⵄⴻⵎⵎⴰⵔ","latitude":"33.7192324","longitude":"-0.7272317"},
{"id":"4601","wilaya_id":"46","code":"4601","name_ar":"عين تموشنت","name_en":"Aïn Témouchent","name_ber":"ⵄⵉⵏ ⵜⵉⵎⵓⵛⴻⵏⵜ","latitude":"35.3650471","longitude":"-0.9452807"},
{"id":"4604","wilaya_id":"46","code":"4604","name_ar":"حمام بوحجر","name_en":"Hammam Bou Hadjar","name_ber":"ⵃⴻⵎⵎⴰⵎ ⴱⵓⵃⴻⴵⴵⴰⵔ","latitude":"35.3790296","longitude":"-0.9711585"},
{"id":"4609","wilaya_id":"46","code":"4609","name_ar":"عين الأربعاء","name_en":"Ain El Arbaa","name_ber":"ⵉⵏ ⵍⵍⴰⵔⴱⵄⴰ","latitude":"35.4058264","longitude":"-0.8811572"},
{"id":"4614","wilaya_id":"46","code":"4614","name_ar":"المالح","name_en":"Al Malih","name_ber":"ⵍⵎⴰⵍⴻⵃ","latitude":"35.3899817","longitude":"-1.0959775"},
{"id":"4619","wilaya_id":"46","code":"4619","name_ar":"العامرية","name_en":"El Amria","name_ber":"ⵍⵄⴰⵎⵔⵉⵢⵢⴰ","latitude":"35.5248267","longitude":"-1.0145245"},
{"id":"4622","wilaya_id":"46","code":"4622","name_ar":"عين الكيحل","name_en":"Ain Kihal","name_ber":"ⵄⵉⵏ ⴽⵉⵃⴻⵍ","latitude":"35.1972618","longitude":"-1.2005876"},
{"id":"4623","wilaya_id":"46","code":"4623","name_ar":"بني صاف","name_en":"Bani Saf","name_ber":"ⴱⴻⵏⵉ ⵚⴰⴼ","latitude":"35.3025458","longitude":"-1.3820360"},
{"id":"4625","wilaya_id":"46","code":"4625","name_ar":"ولهاصة الغرابة","name_en":"Oulhaça El Gheraba","name_ber":"ⵓⵍⵀⴰⵚⴰ ⵍⵖⴻⵔⵔⴰⴱⴰ (ⵙⵉⴳⴰ)","latitude":"35.2332708","longitude":"-1.5054030"},
{"id":"4701","wilaya_id":"47","code":"4701","name_ar":"غرداية","name_en":"Ghardaia","name_ber":"ⵜⴰⵖⴻⵔⴷⴰⵢⵜ","latitude":"32.4408270","longitude":"3.5618209"},
{"id":"4702","wilaya_id":"47","code":"4702","name_ar":"المنيعة","name_en":"El Menia","name_ber":"ⵍⴻⵎⵏⵉⵄⴰ","latitude":"30.7071885","longitude":"3.0480625"},
{"id":"4703","wilaya_id":"47","code":"4703","name_ar":"ضاية بن ضحوة","name_en":"Dhayet Bendhahoua","name_ber":"ⴹⴰⵢⴻⵜ ⴱⴻⵏ ⴹⴻⵃⵡⴰⵏ","latitude":"32.5348228","longitude":"3.6082436"},
{"id":"4704","wilaya_id":"47","code":"4704","name_ar":"بريان","name_en":"Berriane","name_ber":"ⴱⴻⵔⵔⵉⵢⴰⵏ","latitude":"32.8256322","longitude":"3.7639006"},
{"id":"4705","wilaya_id":"47","code":"4705","name_ar":"متليلي","name_en":"Metlili","name_ber":"ⵎⴻⵜⵍⵉⵍⵉ","latitude":"32.2605169","longitude":"3.6259116"},
{"id":"4706","wilaya_id":"47","code":"4706","name_ar":"القرارة","name_en":"El Guerrara","name_ber":"El Guerrara ⴳⴻⵔⵔⴰⵔⴰ القرارة","latitude":"32.7694359","longitude":"4.5605514"},
{"id":"4708","wilaya_id":"47","code":"4708","name_ar":"زلفانة","name_en":"Zelfana","name_ber":"ⵣⴻⵍⴼⴰⵏⴰ","latitude":"32.3936629","longitude":"4.2268033"},
{"id":"4710","wilaya_id":"47","code":"4710","name_ar":"بونورة","name_en":"Bounoura","name_ber":"ⴱⵓⵏⵓⵔⴰ","latitude":"32.4856037","longitude":"3.7049786"},
{"id":"4713","wilaya_id":"58","code":"4713","name_ar":"المنصورة","name_en":"Mansourah","name_ber":"ⵎⴻⵏⵙⵓⵔⴰ","latitude":"34.8699786","longitude":"-1.3561512"},
{"id":"4801","wilaya_id":"48","code":"4801","name_ar":"غليزان","name_en":"Relizane","name_ber":"ⵉⵖⵉⵍ ⵉⵣⴰⵏ","latitude":"35.8363185","longitude":"0.9118537"},
{"id":"4802","wilaya_id":"48","code":"4802","name_ar":"وادي رهيو","name_en":"Oued Rhiou","name_ber":"ⵡⴰⴷ ⵔⵀⵉⵎ","latitude":"35.9607535","longitude":"0.9180664"},
{"id":"4807","wilaya_id":"48","code":"4807","name_ar":"الحمادنة","name_en":"El Hamadna","name_ber":"ⵍⵁⴻⵎⵎⴰⴷⵏⴰ","latitude":"35.9062679","longitude":"0.7761842"},
{"id":"4808","wilaya_id":"48","code":"4808","name_ar":"سيدي أمحمد بن علي","name_en":"Sidi M\\&amp;#039;Hamed Ben Ali","name_ber":"ⵙⵉⴷⵉ ⵎⵃⴻⵎⵎⴻⴷ ⴱⴻⵏ ⵄⵍⵉ","latitude":"36.1433373","longitude":"0.8442389"},
{"id":"4811","wilaya_id":"48","code":"4811","name_ar":"عمي موسى","name_en":"Ammi Moussa","name_ber":"ⵄⴻⵎⵎⵉ ⵎⵓⵙⴰ","latitude":"35.8702048","longitude":"1.1081265"},
{"id":"4812","wilaya_id":"48","code":"4812","name_ar":"زمورة","name_en":"Zemmora","name_ber":"ⵣⴻⵎⵎⵓⵔⴰ","latitude":"35.7205041","longitude":"0.7594249"},
{"id":"4814","wilaya_id":"48","code":"4814","name_ar":"جديوية","name_en":"Djdiouia","name_ber":"ⴵⴻⴷⵢⵉⵡⵉⵢⴰ","latitude":"35.9272152","longitude":"0.8305580"},
{"id":"4817","wilaya_id":"48","code":"4817","name_ar":"المطمر","name_en":"El Matmar","name_ber":"ⵍⵎⴰⵟⵎⴰⵔ","latitude":"35.7309261","longitude":"0.4611475"},
{"id":"4819","wilaya_id":"48","code":"4819","name_ar":"عين طارق","name_en":"Ain Tarik","name_ber":"ⵄⵉⵏ ⵟⴰⵔⴻⵇ","latitude":"35.7813880","longitude":"1.1302226"},
{"id":"4822","wilaya_id":"48","code":"4822","name_ar":"مازونة","name_en":"Mazouna","name_ber":"ⵎⴰⵣⵓⵏⴰ","latitude":"36.1262742","longitude":"0.8801926"},
{"id":"4825","wilaya_id":"48","code":"4825","name_ar":"يلل","name_en":"Yellel","name_ber":"ⵢⴻⵍⵍⴻⵍ","latitude":"35.7217352","longitude":"0.3571077"},
{"id":"4827","wilaya_id":"48","code":"4827","name_ar":"الرمكة","name_en":"Ramka","name_ber":"ⵔⵔⴻⵎⴽⴰ","latitude":"35.8669131","longitude":"1.2836132"},
{"id":"4828","wilaya_id":"48","code":"4828","name_ar":"منداس","name_en":"Aït Mendes","name_ber":"At Mendas","latitude":"36.5112715","longitude":"3.9844573"}
]
