
[
{"id":"1","code":"1","postcode":"01001","name_ar":"أدرار","name_en":"Adrar","name_ber":"ⴰⴷⵕⴰⵕ","latitude":"27.9458867","longitude":"-0.199293833025847"},
{"id":"2","code":"2","postcode":"02001","name_ar":" الشلف","name_en":"Chlef","name_ber":"ⵛⵍⴻⴼ","latitude":"36.164592","longitude":"1.331499"},
{"id":"3","code":"3","postcode":"03001","name_ar":"الأغواط","name_en":"Laghouat","name_ber":"ⵍⴰⴴⵡⴰⵟ","latitude":"33.8063518","longitude":"2.8808616"},
{"id":"4","code":"4","postcode":"04001","name_ar":"أم البواقي","name_en":"Oum El Bouaghi","name_ber":"ⵓⵎ ⵍⴻⴱⵡⴰⵇⵉ","latitude":"35.8374839","longitude":"7.15654848292084"},
{"id":"5","code":"5","postcode":"05001","name_ar":"باتنة","name_en":"Batna","name_ber":"ⵜⴱⴰⵜⴻⵏⵜ","latitude":"35.554404","longitude":"6.1767453"},
{"id":"6","code":"6","postcode":"06001","name_ar":" بجاية","name_en":"Bejaia","name_ber":"ⴲⴳⴰⵢⴻⵝ","latitude":"36.7511783","longitude":"5.0643687"},
{"id":"7","code":"7","postcode":"07001","name_ar":"بسكرة","name_en":"Biskra","name_ber":"ⵜⵉⴱⴻⵙⴽⴻⵔⵜ","latitude":"34.8508508","longitude":"5.7286878"},
{"id":"8","code":"8","postcode":"08001","name_ar":"بشار","name_en":"Bechar","name_ber":"ⴱⴻⵛⵛⴰⵔ","latitude":"31.6165355","longitude":"-2.2180053"},
{"id":"9","code":"9","postcode":"09001","name_ar":"البليدة","name_en":"Blida","name_ber":"ⵍⴻⴱⵍⵉⴸⴰ","latitude":"36.4701645","longitude":"2.8287985"},
{"id":"10","code":"10","postcode":"10001","name_ar":"البويرة","name_en":"Bouira","name_ber":"ⵜⵓⴱⵉⵔⴻⵜ","latitude":"36.3739012","longitude":"3.9007007"},
{"id":"11","code":"11","postcode":"11001","name_ar":"تمنراست","name_en":"Tamanrasset","name_ber":"ⵜⴰⵎⴻⵏⵔⴰⵙⴻⵜ","latitude":"22.2701245","longitude":"5.80956836297059"},
{"id":"12","code":"12","postcode":"12001","name_ar":"تبسة","name_en":"Tebessa","name_ber":"ⵜⴱⴻⵙⵙⴰ","latitude":"35.4035956","longitude":"8.1212322"},
{"id":"13","code":"13","postcode":"13001","name_ar":"تلمسان","name_en":"Tlemcen","name_ber":"ⵜⴰⵍⴰ ⵉⵎⵙⴰⵏ","latitude":"34.881789","longitude":"-1.316699"},
{"id":"14","code":"14","postcode":"14001","name_ar":"تيارت","name_en":"Tiaret","name_ber":"ⵜⴰⵀⴻⵔⵜ","latitude":"35.3661448","longitude":"1.3194687"},
{"id":"15","code":"15","postcode":"15001","name_ar":"تيزي وزو","name_en":"Tizi Ouzou","name_ber":"ⵝⵉⵣⵉ ⵡⴻⵣⵓ","latitude":"36.7137843","longitude":"4.0493919"},
{"id":"16","code":"16","postcode":"16001","name_ar":"الجزائر","name_en":"Alger Centre","name_ber":"ⴷⵣⴰⵢⴻⵔ ⵜⴰⵍⴻⵎⵎⴰⵙⵜ","latitude":"36.7763022","longitude":"3.0584856"},
{"id":"17","code":"17","postcode":"17001","name_ar":"الجلفة","name_en":"Djelfa","name_ber":"ⴵⴻⵍⴼⴰ","latitude":"34.671359","longitude":"3.254037"},
{"id":"18","code":"18","postcode":"18001","name_ar":"جيجل","name_en":"Jijel","name_ber":"ⵉⵖⵉⵍ ⴳⵉⵍⵉ","latitude":"36.8167305","longitude":"5.771494"},
{"id":"19","code":"19","postcode":"19001","name_ar":"سطيف","name_en":"Setif","name_ber":"ⵚⵟⵉⴼ","latitude":"36.1892751","longitude":"5.403493"},
{"id":"20","code":"20","postcode":"20001","name_ar":"سعيدة","name_en":"Saida","name_ber":"ⵙⵄⵉⴷⴰ","latitude":"34.8416405","longitude":"0.1509912"},
{"id":"21","code":"21","postcode":"21001","name_ar":"سكيكدة","name_en":"Skikda","name_ber":"ⵙⴽⵉⴽⴷⴰ","latitude":"36.879882","longitude":"6.907485"},
{"id":"22","code":"22","postcode":"22001","name_ar":"سيدي بلعباس","name_en":"Sidi Bel Abbès","name_ber":"ⵙⵉⴷⵉ ⴱⵍⵄⴰⴱⴰⵙ","latitude":"35.1911682","longitude":"-0.6347284"},
{"id":"23","code":"23","postcode":"23001","name_ar":"عنابة","name_en":"Annaba","name_ber":"ⵄⴻⵍⵍⴰⴱⴰ","latitude":"36.8982165","longitude":"7.7549272"},
{"id":"24","code":"24","postcode":"24001","name_ar":"قالمة","name_en":"Guelma","name_ber":"ⴳⴰⵍⵎⴰ","latitude":"36.465084","longitude":"7.430647"},
{"id":"25","code":"25","postcode":"25001","name_ar":"قسنطينة","name_en":"Constantine","name_ber":"ⵇⵙⴻⵟⵉⵏⴰ","latitude":"36.364519","longitude":"6.60826"},
{"id":"26","code":"26","postcode":"26001","name_ar":"المدية","name_en":"Medea","name_ber":"ⵍⴻⵎⴷⵉⵢⴰ","latitude":"36.265344","longitude":"2.766957"},
{"id":"27","code":"27","postcode":"27001","name_ar":"مستغانم","name_en":"Mostaganem","name_ber":"ⵎⴻⵙⵜⵖⴰⵏⴻⵎ","latitude":"35.928808","longitude":"0.089978"},
{"id":"28","code":"28","postcode":"28001","name_ar":"المسيلة","name_en":"Msila","name_ber":"ⵝⴰⵎⵙⵉⵍⵜ","latitude":"35.7087553","longitude":"4.5371552"},
{"id":"29","code":"29","postcode":"29001","name_ar":"معسكر","name_en":"Mascara","name_ber":"ⵎⵄⴰⵙⴽⴰⵕ","latitude":"35.394081","longitude":"0.1379568"},
{"id":"30","code":"30","postcode":"30001","name_ar":"ورقلة","name_en":"Ouargla","name_ber":"ⵡⴰⵔⴳⵍⴰ","latitude":"31.94467","longitude":"5.320958"},
{"id":"31","code":"31","postcode":"31001","name_ar":"وهران","name_en":"Oran","name_ber":"","latitude":"35.7032751","longitude":"-0.6492976"},
{"id":"32","code":"32","postcode":"32001","name_ar":"البيض","name_en":"El Bayadh","name_ber":"ⵍⴱⴻⵢⴻⴹ","latitude":"33.63785225","longitude":"1.01220391125046"},
{"id":"33","code":"33","postcode":"33001","name_ar":"إليزي","name_en":"Illizi","name_ber":"ⵉⵍⵉⵣⵉ","latitude":"26.4880835","longitude":"8.35714915067357"},
{"id":"34","code":"34","postcode":"34001","name_ar":"برج بوعريريج","name_en":"Bordj Bou Arreridj","name_ber":"ⴱⵓⴵ ⴱⵓ ⴰⵄⵔⵉⵔⵉⴵ","latitude":"36.0676413","longitude":"4.74526399967757"},
{"id":"35","code":"35","postcode":"35001","name_ar":"بومرداس","name_en":"Boumerdès","name_ber":"ⴱⵓⵎⴻⵔⴷⴰⵙ","latitude":"36.7560385","longitude":"3.47874068259011"},
{"id":"36","code":"36","postcode":"36001","name_ar":"الطارف","name_en":"El Tarf","name_ber":"ⵟⵟⴰⵔⴻⴼ","latitude":"36.754211","longitude":"8.31347507815534"},
{"id":"37","code":"37","postcode":"37001","name_ar":"تندوف","name_en":"Tindouf","name_ber":"ⵜⵉⵏⴷⵓⴼ","latitude":"27.2231241","longitude":"-7.08630466073867"},
{"id":"38","code":"38","postcode":"38001","name_ar":"تيسمسيلت","name_en":"Tissemsilt","name_ber":"ⵝⵉⵙⴻⵎⵙⵉⵍⵜ","latitude":"35.604813","longitude":"1.810476"},
{"id":"39","code":"39","postcode":"39001","name_ar":"الوادي","name_en":"El Oued","name_ber":"ⵍⵡⴰⴷ \/ ⴰⵙⵉⴼ","latitude":"33.3536537","longitude":"6.8639906377931"},
{"id":"40","code":"40","postcode":"40001","name_ar":"خنشلة","name_en":"Khenchela","name_ber":"ⵅⴻⵏⵛⴻⵍⵜ","latitude":"35.430154","longitude":"7.145711"},
{"id":"41","code":"41","postcode":"41001","name_ar":"سوق أهراس","name_en":"Souk Ahras","name_ber":"ⵜⴰⴳⴰⵙⵜ","latitude":"36.284832","longitude":"7.9515466"},
{"id":"42","code":"42","postcode":"42001","name_ar":"تيبازة","name_en":"Tipaza","name_ber":"ⵜⵉⵒⴰⵣⴰ","latitude":"36.59689825","longitude":"2.39693641544915"},
{"id":"43","code":"43","postcode":"43001","name_ar":"ميلة","name_en":"Mila","name_ber":"ⵎⵉⵍⴰ","latitude":"36.451941","longitude":"6.262331"},
{"id":"44","code":"44","postcode":"44001","name_ar":"عين الدفلة","name_en":"Ain Defla","name_ber":"ⵄⵉⵏ ⴷⴻⴼⵍⴰ","latitude":"36.2656797","longitude":"1.9701666"},
{"id":"45","code":"45","postcode":"45001","name_ar":"النعامة","name_en":"Naama","name_ber":"ⵏⴰⴰⵎⴰ","latitude":"33.2840315","longitude":"-0.294821703221287"},
{"id":"46","code":"46","postcode":"46001","name_ar":"عين تيموشنت","name_en":"Ain Temouchent","name_ber":"ⵄⵉⵏ ⵜⵉⵎⵓⵛⴻⵏⵜ","latitude":"35.26665705","longitude":"-1.1499276224075"},
{"id":"47","code":"47","postcode":"47001","name_ar":"غرداية","name_en":"Ghardaia","name_ber":"ⵜⴰⵖⴻⵔⴷⴰⵢⵜ","latitude":"32.485855","longitude":"3.677104"},
{"id":"48","code":"48","postcode":"48001","name_ar":"غليزان","name_en":"Relizane","name_ber":"Iⴳⵀⵉⵍ Iⵣⴰⵏ","latitude":"35.7381193","longitude":"0.5547673"},
{"id":"49","code":"49","postcode":"01009","name_ar":"تيميمون","name_en":"Timimoun","name_ber":"ⵜⵉⵎⵉⵎⵓⵏ","latitude":"29.6911885","longitude":"1.55544571795234"},
{"id":"50","code":"50","postcode":"01025","name_ar":"برج باجي مختار","name_en":"Bordj Badji Mokhtar","name_ber":"ⴱⵓⵔⴵ ⴱⴰⴵⵉ ⵎⵓⵅⵜⴰⵔ","latitude":"22.97994035","longitude":"-0.144905165624854"},
{"id":"51","code":"51","postcode":"07005","name_ar":"أولاد جلال","name_en":"Ouled Djellal","name_ber":"ⵡⵍⴻⴷ ⴵⴻⵍⴰⵍ","latitude":"34.4254103","longitude":"5.0644342"},
{"id":"52","code":"52","postcode":"08007","name_ar":"بني عباس","name_en":"Beni Abbes","name_ber":"ⴰⵢⵜ ⴰⴱⴱⴰⵙ","latitude":"30.1317426","longitude":"-2.169031"},
{"id":"53","code":"53","postcode":"11008","name_ar":"عين صالح","name_en":"In Salah","name_ber":"ⵄⵉⵏ ⵙⴰⵍⴻⵃ","latitude":"27.2188905","longitude":"2.46835239474902"},
{"id":"54","code":"54","postcode":"11004","name_ar":"عين قزام","name_en":"In Guezzam","name_ber":"ⵄⵉⵏ ⴳⴻⵣⵣⴰⵎ","latitude":"20.390479","longitude":"5.48311205730573"},
{"id":"55","code":"55","postcode":"30013","name_ar":"تقرت","name_en":"Touggourt","name_ber":"ⵜⵓⴳⵓⵔⵜ","latitude":"33.1098968","longitude":"6.066102"},
{"id":"56","code":"56","postcode":"33002","name_ar":"جانت","name_en":"Djanet","name_ber":"ⴵⴰⵏⴻⵜ","latitude":"23.9027645","longitude":"10.1301801171869"},
{"id":"57","code":"57","postcode":"39027","name_ar":"المغير","name_en":"El Mghair","name_ber":"ⵍⴻⵎⵖⵉⵔ","latitude":"33.9496809","longitude":"5.921089"},
{"id":"58","code":"58","postcode":"47002","name_ar":"المنيعة","name_en":"El Menia","name_ber":"ⵍⴻⵎⵏⵉⵄⴰ","latitude":"31.36370625","longitude":"2.90964575455801"}
]
